{"type":"FeatureCollection","features":[{"type":"Feature","properties":{"name":"17 SANTO TOMAS CHAUTLA"},"geometry":{"type":"Polygon","coordinates":[[[-98.133856,18.947215],[-98.129994,18.947934],[-98.119639,18.944114],[-98.109685,18.936124],[-98.077972,18.949542],[-98.094319,18.965307],[-98.103842,18.96716],[-98.105501,18.975728],[-98.116185,18.976273],[-98.122843,18.969716],[-98.132189,18.971488],[-98.132117,18.988019],[-98.150783,18.99317],[-98.153448,18.974934],[-98.155758,18.972509],[-98.160135,18.97182],[-98.159425,18.96873],[-98.162157,18.959627],[-98.159141,18.958027],[-98.158934,18.952714],[-98.156845,18.950819],[-98.151859,18.95315],[-98.133856,18.947215]]]}},{"type":"Feature","properties":{"name":"16 SANTA MARIA XONACATEPEC"},"geometry":{"type":"Polygon","coordinates":[[[-98.051722,19.118693],[-98.0557,19.118644],[-98.056237,19.114133],[-98.059397,19.110954],[-98.072332,19.110464],[-98.073371,19.107552],[-98.07644,19.107568],[-98.080819,19.108353],[-98.083,19.110448],[-98.076091,19.117775],[-98.08827,19.121934],[-98.088864,19.12027],[-98.09295,19.121332],[-98.097979,19.113322],[-98.103347,19.109527],[-98.110123,19.097827],[-98.11092,19.091678],[-98.116215,19.086162],[-98.117125,19.081465],[-98.118692,19.081549],[-98.122988,19.074844],[-98.129014,19.069479],[-98.11026,19.065425],[-98.100272,19.078075],[-98.0974,19.084176],[-98.08164,19.077669],[-98.07465,19.094417],[-98.071421,19.094184],[-98.071923,19.092213],[-98.066696,19.091684],[-98.066413,19.093514],[-98.060487,19.098216],[-98.061937,19.102104],[-98.051722,19.118693]]]}},{"type":"Feature","properties":{"name":"15  SANTA MARIA GUADALUPE TECOLA"},"geometry":{"type":"Polygon","coordinates":[[[-98.208844,18.918048],[-98.206796,18.918649],[-98.206584,18.916772],[-98.209173,18.916057],[-98.209402,18.914511],[-98.204567,18.910833],[-98.207714,18.912183],[-98.207071,18.907351],[-98.210748,18.911211],[-98.209486,18.907056],[-98.210882,18.903499],[-98.207192,18.903492],[-98.206394,18.901717],[-98.204402,18.903126],[-98.199823,18.900375],[-98.197733,18.895676],[-98.193021,18.893533],[-98.188538,18.898623],[-98.19091,18.899443],[-98.194263,18.897503],[-98.193375,18.899258],[-98.196602,18.899048],[-98.195696,18.902253],[-98.194551,18.90084],[-98.193054,18.902545],[-98.191258,18.902006],[-98.187206,18.906298],[-98.189502,18.906131],[-98.19098,18.908263],[-98.192784,18.90709],[-98.195999,18.909406],[-98.194688,18.911171],[-98.191026,18.911628],[-98.192448,18.912579],[-98.199803,18.911518],[-98.19725,18.913751],[-98.19611,18.918557],[-98.198307,18.919659],[-98.197987,18.921753],[-98.200969,18.920762],[-98.198756,18.923025],[-98.201347,18.926077],[-98.207074,18.925157],[-98.206191,18.921646],[-98.209875,18.923936],[-98.208355,18.922335],[-98.209934,18.921873],[-98.207746,18.920973],[-98.21017,18.91885],[-98.208844,18.918048]]]}},{"type":"Feature","properties":{"name":"14  SAN SEBASTIAN DE APARICIO"},"geometry":{"type":"Polygon","coordinates":[[[-98.138183,19.123432],[-98.145363,19.115553],[-98.148935,19.113953],[-98.144947,19.121158],[-98.146809,19.122923],[-98.1648,19.105527],[-98.166247,19.105002],[-98.174698,19.110109],[-98.180574,19.100199],[-98.183624,19.09842],[-98.180886,19.097573],[-98.184207,19.093007],[-98.179593,19.090482],[-98.185501,19.086761],[-98.18899,19.079765],[-98.181525,19.07572],[-98.178244,19.07894],[-98.174325,19.077185],[-98.168461,19.079722],[-98.167567,19.082614],[-98.163035,19.081209],[-98.152602,19.088477],[-98.148822,19.093164],[-98.152719,19.100156],[-98.144841,19.102556],[-98.132695,19.109766],[-98.13192,19.114342],[-98.138183,19.123432]]]}},{"type":"Feature","properties":{"name":"13  SAN PEDRO ZACACHIMALPA"},"geometry":{"type":"Polygon","coordinates":[[[-98.109685,18.936124],[-98.119328,18.943964],[-98.128286,18.947532],[-98.132557,18.948303],[-98.13474,18.947044],[-98.142789,18.951137],[-98.151859,18.95315],[-98.156845,18.950819],[-98.158934,18.952714],[-98.159141,18.958027],[-98.162157,18.959627],[-98.159842,18.957602],[-98.175481,18.939152],[-98.17021,18.939058],[-98.170619,18.935919],[-98.174002,18.93434],[-98.172526,18.933935],[-98.173751,18.930377],[-98.173042,18.929273],[-98.170935,18.931959],[-98.172786,18.92613],[-98.1723,18.924909],[-98.170178,18.925509],[-98.171423,18.922749],[-98.169354,18.922739],[-98.170248,18.92129],[-98.168151,18.917108],[-98.165771,18.920192],[-98.165203,18.915407],[-98.163385,18.914508],[-98.162681,18.917318],[-98.161156,18.916889],[-98.163401,18.921166],[-98.161775,18.921299],[-98.159771,18.918196],[-98.159415,18.920304],[-98.158386,18.919221],[-98.156608,18.920244],[-98.158199,18.917204],[-98.152747,18.913991],[-98.152117,18.912066],[-98.148574,18.911206],[-98.138405,18.915425],[-98.140409,18.918482],[-98.140823,18.92425],[-98.142073,18.920599],[-98.144947,18.927082],[-98.146522,18.927324],[-98.143951,18.929188],[-98.144167,18.925438],[-98.1422,18.924726],[-98.142288,18.926695],[-98.141359,18.925378],[-98.139876,18.926403],[-98.138469,18.922083],[-98.135472,18.920616],[-98.133815,18.917045],[-98.133301,18.921262],[-98.131425,18.922003],[-98.13397,18.92525],[-98.131953,18.924725],[-98.132831,18.92637],[-98.131545,18.927301],[-98.134139,18.930783],[-98.132374,18.929087],[-98.12951,18.930246],[-98.130288,18.932265],[-98.127153,18.938345],[-98.129148,18.933619],[-98.128241,18.928036],[-98.130164,18.92767],[-98.130432,18.923546],[-98.128417,18.922599],[-98.12742,18.924891],[-98.127692,18.919876],[-98.123568,18.917184],[-98.120653,18.918718],[-98.122,18.91563],[-98.118562,18.913691],[-98.111525,18.912158],[-98.109847,18.912759],[-98.109982,18.915291],[-98.10846,18.914299],[-98.107987,18.91064],[-98.11262,18.909501],[-98.104119,18.910613],[-98.095881,18.914676],[-98.097538,18.917925],[-98.114056,18.929971],[-98.115042,18.933586],[-98.119841,18.933188],[-98.121408,18.938307],[-98.109685,18.936124]]]}},{"type":"Feature","properties":{"name":"12 SAN PABLO XOCHIMEHUCAN"},"geometry":{"type":"Polygon","coordinates":[[[-98.197295,19.11631],[-98.203572,19.11494],[-98.209058,19.115774],[-98.209169,19.1136],[-98.205798,19.088398],[-98.202423,19.086469],[-98.203629,19.085049],[-98.202248,19.078283],[-98.203961,19.07829],[-98.202739,19.074172],[-98.196789,19.073372],[-98.197271,19.075594],[-98.193377,19.074681],[-98.192915,19.077326],[-98.189571,19.077922],[-98.185501,19.086761],[-98.179593,19.090482],[-98.184207,19.093007],[-98.180886,19.097573],[-98.183624,19.09842],[-98.180574,19.100199],[-98.17292,19.112275],[-98.179862,19.117015],[-98.185644,19.113615],[-98.187784,19.114822],[-98.189676,19.113286],[-98.197295,19.11631]]]}},{"type":"Feature","properties":{"name":"11  SAN MIGUEL CANOA"},"geometry":{"type":"Polygon","coordinates":[[[-98.138183,19.123432],[-98.131793,19.113881],[-98.130013,19.11512],[-98.128539,19.120272],[-98.126526,19.120645],[-98.118641,19.12913],[-98.111801,19.122371],[-98.106918,19.12571],[-98.094329,19.119037],[-98.09295,19.121332],[-98.088864,19.12027],[-98.08827,19.121934],[-98.076091,19.117775],[-98.083,19.110448],[-98.079871,19.108001],[-98.073371,19.107552],[-98.072332,19.110464],[-98.059397,19.110954],[-98.056237,19.114133],[-98.0557,19.118644],[-98.051722,19.118693],[-98.047375,19.125999],[-98.044606,19.124567],[-98.039816,19.133785],[-98.039211,19.13856],[-98.043438,19.163089],[-98.043316,19.173929],[-98.041614,19.177028],[-98.020694,19.200347],[-98.020051,19.194388],[-98.000713,19.191379],[-98.015163,19.212504],[-98.032086,19.228581],[-98.077611,19.183166],[-98.097245,19.167882],[-98.103776,19.156806],[-98.105018,19.150418],[-98.110332,19.143315],[-98.119879,19.1341],[-98.138183,19.123432]]]}},{"type":"Feature","properties":{"name":"10 SAN JERONIMO CALERAS"},"geometry":{"type":"Polygon","coordinates":[[[-98.228569,19.115291],[-98.228673,19.110512],[-98.231166,19.104798],[-98.228815,19.100708],[-98.232914,19.093844],[-98.229997,19.094349],[-98.22902,19.090935],[-98.232546,19.083459],[-98.228307,19.079026],[-98.2326,19.071797],[-98.23098,19.068715],[-98.231551,19.062963],[-98.223502,19.058575],[-98.218554,19.068445],[-98.22109,19.074718],[-98.217524,19.076963],[-98.215677,19.082657],[-98.221668,19.085463],[-98.220405,19.088338],[-98.221645,19.088771],[-98.21922,19.089697],[-98.207794,19.087531],[-98.205986,19.089192],[-98.209058,19.115774],[-98.211979,19.117236],[-98.212057,19.118967],[-98.214629,19.118632],[-98.215577,19.122077],[-98.228569,19.115291]]]}},{"type":"Feature","properties":{"name":"09 SAN FRANCISCO TOTIMEHUACÁN"},"geometry":{"type":"Polygon","coordinates":[[[-98.197807,18.88294],[-98.199989,18.883875],[-98.195737,18.883773],[-98.19482,18.885277],[-98.200256,18.889349],[-98.19941,18.894706],[-98.200406,18.895461],[-98.20118,18.892664],[-98.202669,18.892324],[-98.207777,18.894498],[-98.202219,18.896633],[-98.205111,18.898549],[-98.205294,18.901043],[-98.211223,18.904485],[-98.209619,18.905135],[-98.210748,18.911211],[-98.207071,18.907351],[-98.207714,18.912183],[-98.204567,18.910833],[-98.209402,18.914511],[-98.206455,18.918014],[-98.21017,18.91885],[-98.207749,18.920293],[-98.209934,18.921873],[-98.208355,18.922335],[-98.209875,18.923936],[-98.206191,18.921646],[-98.207074,18.925157],[-98.202981,18.928209],[-98.204709,18.930047],[-98.208617,18.930181],[-98.209434,18.927823],[-98.210422,18.928831],[-98.214547,18.927769],[-98.219492,18.924033],[-98.224758,18.924546],[-98.230218,18.920046],[-98.230266,18.909583],[-98.234426,18.901317],[-98.240267,18.87562],[-98.232565,18.865678],[-98.223367,18.870208],[-98.219168,18.856447],[-98.204642,18.83398],[-98.197354,18.835475],[-98.195602,18.829758],[-98.181252,18.828376],[-98.153638,18.830149],[-98.1507,18.850668],[-98.142065,18.855429],[-98.146901,18.854876],[-98.151854,18.856434],[-98.157262,18.866022],[-98.16867,18.866545],[-98.172817,18.885028],[-98.176515,18.8863],[-98.176497,18.88944],[-98.179404,18.888839],[-98.178356,18.893134],[-98.180779,18.89563],[-98.181402,18.894208],[-98.184946,18.895313],[-98.187034,18.894038],[-98.186403,18.891131],[-98.189107,18.890082],[-98.190665,18.883165],[-98.192447,18.884625],[-98.198071,18.880182],[-98.197807,18.88294]]]}},{"type":"Feature","properties":{"name":"09 SAN FRANCISCO TOTIMEHUCAN"},"geometry":{"type":"Polygon","coordinates":[[[-98.276797,18.969637],[-98.277493,18.960673],[-98.271132,18.952144],[-98.268992,18.952403],[-98.26704,18.956143],[-98.264118,18.953414],[-98.261413,18.954171],[-98.260147,18.951035],[-98.254335,18.950656],[-98.251583,18.94625],[-98.248537,18.947034],[-98.246921,18.944719],[-98.245051,18.947114],[-98.245826,18.944609],[-98.244315,18.940875],[-98.238996,18.942987],[-98.238918,18.94131],[-98.237207,18.941081],[-98.236322,18.943409],[-98.235422,18.940827],[-98.2366,18.939039],[-98.233861,18.939977],[-98.235302,18.937392],[-98.233997,18.937246],[-98.233972,18.934668],[-98.233498,18.938698],[-98.23159,18.935771],[-98.230326,18.93743],[-98.227068,18.93328],[-98.225367,18.933659],[-98.230309,18.938438],[-98.227869,18.938557],[-98.231854,18.944329],[-98.229355,18.944893],[-98.230177,18.948389],[-98.22969,18.947098],[-98.228454,18.948007],[-98.228463,18.946108],[-98.227303,18.946619],[-98.227238,18.944673],[-98.220405,18.946496],[-98.219114,18.943279],[-98.215241,18.944599],[-98.214022,18.941851],[-98.215572,18.936935],[-98.214407,18.933109],[-98.210589,18.933093],[-98.213535,18.935379],[-98.211776,18.937482],[-98.209294,18.936205],[-98.208936,18.938923],[-98.203064,18.935639],[-98.206552,18.937741],[-98.20573,18.93973],[-98.207396,18.941706],[-98.203713,18.944198],[-98.204413,18.947319],[-98.201768,18.949183],[-98.196516,18.944941],[-98.196523,18.93315],[-98.194823,18.933142],[-98.19222,18.936624],[-98.191655,18.931136],[-98.19459,18.930516],[-98.196451,18.927688],[-98.193492,18.928191],[-98.19168,18.925956],[-98.192011,18.9238],[-98.1889,18.925217],[-98.18776,18.921672],[-98.187009,18.924037],[-98.183269,18.923317],[-98.185154,18.92574],[-98.183549,18.926389],[-98.184678,18.932465],[-98.181001,18.928605],[-98.181643,18.933436],[-98.178496,18.932086],[-98.183575,18.936399],[-98.180383,18.939268],[-98.184099,18.940105],[-98.181677,18.941547],[-98.183862,18.943127],[-98.182283,18.943589],[-98.183803,18.94519],[-98.180119,18.9429],[-98.179621,18.943859],[-98.180398,18.9463],[-98.182856,18.947389],[-98.181843,18.947924],[-98.183487,18.949291],[-98.181984,18.949355],[-98.182914,18.950671],[-98.179583,18.946648],[-98.180327,18.950683],[-98.178721,18.946715],[-98.17554,18.94724],[-98.178093,18.944063],[-98.176645,18.937962],[-98.161598,18.955042],[-98.159842,18.957602],[-98.162157,18.959627],[-98.159425,18.96873],[-98.160135,18.97182],[-98.153754,18.974226],[-98.150783,18.99317],[-98.169271,18.996728],[-98.179778,18.990612],[-98.180816,18.988598],[-98.184664,18.989345],[-98.18429,18.99251],[-98.185318,18.992421],[-98.196266,18.982798],[-98.19666,18.97881],[-98.201978,18.99282],[-98.206337,18.992575],[-98.209313,18.984437],[-98.214836,18.982784],[-98.218824,18.988545],[-98.223372,18.989713],[-98.226606,18.982058],[-98.224016,18.980929],[-98.225708,18.978576],[-98.223711,18.976239],[-98.224404,18.974659],[-98.231209,18.978165],[-98.234036,18.973814],[-98.251666,18.983278],[-98.256918,18.976469],[-98.271084,18.966651],[-98.271509,18.964682],[-98.275747,18.965552],[-98.275072,18.967009],[-98.276797,18.969637]]]}},{"type":"Feature","properties":{"name":"08 SAN FELIPE HUEYOTLIPAN"},"geometry":{"type":"Polygon","coordinates":[[[-98.206029,19.089385],[-98.207794,19.087531],[-98.21922,19.089697],[-98.221645,19.088771],[-98.220405,19.088338],[-98.221668,19.085463],[-98.215677,19.082657],[-98.217524,19.076963],[-98.22109,19.074718],[-98.219829,19.069541],[-98.214475,19.064937],[-98.210005,19.068278],[-98.20621,19.064698],[-98.198903,19.065745],[-98.202317,19.072683],[-98.2011,19.071904],[-98.197579,19.073803],[-98.202739,19.074172],[-98.203961,19.07829],[-98.202248,19.078283],[-98.203629,19.085049],[-98.202423,19.086469],[-98.206029,19.089385]]]}},{"type":"Feature","properties":{"name":"07 SAN BALTAZAR TETELA"},"geometry":{"type":"Polygon","coordinates":[[[-98.133856,18.863327],[-98.12479,18.861997],[-98.113517,18.871286],[-98.139878,18.871492],[-98.134144,18.909922],[-98.135008,18.911792],[-98.138662,18.912047],[-98.138142,18.911066],[-98.141409,18.910643],[-98.141805,18.908869],[-98.146793,18.908881],[-98.144691,18.905401],[-98.147428,18.907068],[-98.150517,18.906174],[-98.150249,18.902672],[-98.152584,18.904226],[-98.152302,18.909653],[-98.154048,18.910277],[-98.15471,18.907344],[-98.15602,18.906159],[-98.15769,18.906984],[-98.158616,18.904213],[-98.154736,18.899494],[-98.156109,18.898285],[-98.161263,18.900435],[-98.161536,18.895803],[-98.164128,18.896436],[-98.162616,18.898102],[-98.164282,18.898982],[-98.164734,18.905368],[-98.165785,18.903616],[-98.168409,18.903788],[-98.166105,18.901996],[-98.167808,18.902437],[-98.168567,18.897502],[-98.170297,18.897621],[-98.169964,18.895623],[-98.171068,18.895894],[-98.170958,18.894413],[-98.172509,18.89523],[-98.173811,18.892974],[-98.171734,18.888656],[-98.173363,18.886714],[-98.176608,18.886546],[-98.172817,18.885028],[-98.16867,18.866545],[-98.157262,18.866022],[-98.151854,18.856434],[-98.146901,18.854876],[-98.142065,18.855429],[-98.140944,18.864367],[-98.133856,18.863327]]]}},{"type":"Feature","properties":{"name":"07  SAN BALTAZAR TETELA"},"geometry":{"type":"Polygon","coordinates":[[[-98.175014,18.928481],[-98.177583,18.926868],[-98.174789,18.924485],[-98.174623,18.92058],[-98.178265,18.924015],[-98.178186,18.920696],[-98.181571,18.919442],[-98.179351,18.918657],[-98.17937,18.916936],[-98.176359,18.917489],[-98.17526,18.916206],[-98.176613,18.915506],[-98.175709,18.912965],[-98.17927,18.905844],[-98.175194,18.903962],[-98.17546,18.906839],[-98.174114,18.907339],[-98.171001,18.903171],[-98.169739,18.903725],[-98.172632,18.90712],[-98.168949,18.910831],[-98.173354,18.913967],[-98.170134,18.914405],[-98.173699,18.920573],[-98.172554,18.92863],[-98.175014,18.928481]]]}},{"type":"Feature","properties":{"name":"06 SAN BALTAZAR CAMPECHE"},"geometry":{"type":"Polygon","coordinates":[[[-98.253997,19.003569],[-98.255239,18.997757],[-98.258381,18.997024],[-98.257857,18.993798],[-98.265428,18.992109],[-98.266675,18.989893],[-98.269276,18.994223],[-98.273578,18.993651],[-98.27278,18.991086],[-98.274541,18.990195],[-98.274251,18.987186],[-98.279891,18.984301],[-98.279955,18.978126],[-98.282788,18.975794],[-98.277067,18.970757],[-98.275072,18.967009],[-98.275747,18.965552],[-98.271509,18.964682],[-98.271084,18.966651],[-98.256918,18.976469],[-98.251666,18.983278],[-98.234036,18.973814],[-98.231209,18.978165],[-98.224404,18.974659],[-98.223711,18.976239],[-98.225708,18.978576],[-98.224016,18.980929],[-98.226606,18.982058],[-98.223372,18.989713],[-98.218824,18.988545],[-98.214836,18.982784],[-98.209313,18.984437],[-98.206337,18.992575],[-98.201978,18.99282],[-98.19666,18.97881],[-98.196266,18.982798],[-98.185318,18.992421],[-98.18429,18.99251],[-98.184664,18.989345],[-98.180816,18.988598],[-98.179778,18.990612],[-98.16916,18.99606],[-98.179774,18.998187],[-98.187669,18.995599],[-98.19075,19.003141],[-98.192689,19.003771],[-98.19007,19.008618],[-98.189655,19.016798],[-98.187502,19.016447],[-98.187966,19.018498],[-98.185861,19.018256],[-98.185197,19.024028],[-98.179632,19.030368],[-98.179451,19.033984],[-98.191725,19.020905],[-98.200827,19.025555],[-98.202222,19.030731],[-98.205625,19.032562],[-98.206942,19.030286],[-98.218545,19.037833],[-98.223569,19.031552],[-98.225791,19.031219],[-98.22397,19.029488],[-98.224187,19.025112],[-98.227579,19.025685],[-98.228972,19.02094],[-98.23114,19.021586],[-98.234474,19.017051],[-98.237257,19.01891],[-98.240181,19.014823],[-98.245075,19.015356],[-98.253134,19.007542],[-98.252674,19.004893],[-98.253997,19.003569]]]}},{"type":"Feature","properties":{"name":"05 SAN ANDRES AZUMIATLA"},"geometry":{"type":"Polygon","coordinates":[[[-98.251895,18.945951],[-98.257977,18.932529],[-98.261059,18.933346],[-98.272141,18.91863],[-98.27906,18.922799],[-98.280865,18.916934],[-98.27422,18.913571],[-98.283988,18.90059],[-98.287983,18.898579],[-98.29626,18.889828],[-98.29063,18.883197],[-98.289595,18.876889],[-98.281334,18.871821],[-98.284957,18.864817],[-98.283693,18.860028],[-98.268371,18.84821],[-98.25702,18.851884],[-98.249606,18.848252],[-98.242831,18.850925],[-98.232565,18.865678],[-98.240267,18.87562],[-98.234426,18.901317],[-98.230266,18.909583],[-98.230218,18.920046],[-98.224758,18.924546],[-98.219778,18.92398],[-98.21559,18.925815],[-98.213048,18.930464],[-98.220711,18.932716],[-98.222475,18.935285],[-98.225036,18.932353],[-98.229479,18.931418],[-98.230274,18.93292],[-98.233729,18.92852],[-98.235756,18.929836],[-98.234228,18.932228],[-98.235765,18.934169],[-98.239937,18.929745],[-98.242714,18.929838],[-98.244561,18.926494],[-98.248316,18.925556],[-98.248506,18.921578],[-98.249412,18.923898],[-98.248079,18.927407],[-98.245848,18.926799],[-98.24417,18.930852],[-98.239472,18.931378],[-98.237511,18.934258],[-98.239377,18.933203],[-98.241861,18.934766],[-98.245707,18.932874],[-98.244726,18.934478],[-98.246295,18.935765],[-98.2424,18.935858],[-98.243301,18.939349],[-98.245247,18.93963],[-98.245291,18.942627],[-98.247176,18.943506],[-98.2456,18.943936],[-98.24766,18.944271],[-98.24828,18.946481],[-98.251895,18.945951]]]}},{"type":"Feature","properties":{"name":"04 LA RESURRECCION"},"geometry":{"type":"Polygon","coordinates":[[[-98.133856,19.109085],[-98.144841,19.102556],[-98.152719,19.100156],[-98.148822,19.093164],[-98.152602,19.088477],[-98.163035,19.081209],[-98.147444,19.076445],[-98.15278,19.065876],[-98.150516,19.065907],[-98.154402,19.061156],[-98.147307,19.059942],[-98.141598,19.056708],[-98.135429,19.06512],[-98.129686,19.068427],[-98.122988,19.074844],[-98.118692,19.081549],[-98.117125,19.081465],[-98.116215,19.086162],[-98.11092,19.091678],[-98.110123,19.097827],[-98.103347,19.109527],[-98.097979,19.113322],[-98.094329,19.119037],[-98.106918,19.12571],[-98.112765,19.122643],[-98.118641,19.12913],[-98.126526,19.120645],[-98.128539,19.120272],[-98.133856,19.109085]]]}},{"type":"Feature","properties":{"name":"03  LA LIBERTAD"},"geometry":{"type":"Polygon","coordinates":[[[-98.232656,19.073381],[-98.240271,19.082826],[-98.241236,19.079227],[-98.239607,19.072296],[-98.242864,19.067268],[-98.241191,19.063604],[-98.241827,19.05815],[-98.240028,19.056702],[-98.241853,19.052555],[-98.240053,19.051162],[-98.240417,19.047868],[-98.236717,19.048157],[-98.234277,19.046513],[-98.232989,19.048058],[-98.224423,19.048327],[-98.222757,19.04965],[-98.230316,19.052701],[-98.234465,19.056347],[-98.231069,19.063509],[-98.232656,19.073381]]]}},{"type":"Feature","properties":{"name":"02 IGNACIO ZARAGOZA"},"geometry":{"type":"Polygon","coordinates":[[[-98.179235,19.031593],[-98.185197,19.024028],[-98.185861,19.018256],[-98.187966,19.018498],[-98.187502,19.016447],[-98.189655,19.016798],[-98.19007,19.008618],[-98.192689,19.003771],[-98.19075,19.003141],[-98.187669,18.995599],[-98.179774,18.998187],[-98.143662,18.991714],[-98.134124,18.998754],[-98.131839,19.005913],[-98.132639,19.02865],[-98.129586,19.030235],[-98.135453,19.030615],[-98.136574,19.028825],[-98.141972,19.028816],[-98.144651,19.034307],[-98.148419,19.03752],[-98.149972,19.037418],[-98.150401,19.034526],[-98.156088,19.040181],[-98.163358,19.041632],[-98.170361,19.038408],[-98.172207,19.034357],[-98.179235,19.031593]]]}},{"type":"Feature","properties":{"name":"01 IGNACIO ROMERO VARGAS"},"geometry":{"type":"Polygon","coordinates":[[[-98.235019,19.109987],[-98.242078,19.100881],[-98.242444,19.095276],[-98.24675,19.095017],[-98.249757,19.092786],[-98.247074,19.089032],[-98.249023,19.087024],[-98.253651,19.085846],[-98.257276,19.087754],[-98.258292,19.084003],[-98.261561,19.084807],[-98.262633,19.083501],[-98.260387,19.08063],[-98.261438,19.078742],[-98.2598,19.077201],[-98.259991,19.074427],[-98.265315,19.065184],[-98.261004,19.06613],[-98.255923,19.055186],[-98.268887,19.04642],[-98.261389,19.044768],[-98.257936,19.051789],[-98.252153,19.048553],[-98.251059,19.045861],[-98.240702,19.042993],[-98.240053,19.051162],[-98.241853,19.052555],[-98.240028,19.056702],[-98.241827,19.05815],[-98.241191,19.063604],[-98.242864,19.067268],[-98.239607,19.072296],[-98.241236,19.079227],[-98.239519,19.085231],[-98.242931,19.091035],[-98.241899,19.093717],[-98.236707,19.094859],[-98.237552,19.101151],[-98.233283,19.104429],[-98.235019,19.109987]]]}}]}