{"type":"FeatureCollection","features":[{"type":"Feature","properties":{"name":"2111401943258"},"geometry":{"type":"Polygon","coordinates":[[[-98.160936,19.092852],[-98.153572,19.106211],[-98.155397,19.107202],[-98.159997,19.103639],[-98.16634,19.105055],[-98.172381,19.097269],[-98.17127,19.098117],[-98.168928,19.09573],[-98.165321,19.097016],[-98.161652,19.092719],[-98.162773,19.089421],[-98.160936,19.092852]]]}},{"type":"Feature","properties":{"name":"2111402215131"},"geometry":{"type":"Polygon","coordinates":[[[-98.146613,18.96833],[-98.148601,18.976358],[-98.155113,18.97224],[-98.159839,18.972402],[-98.157974,18.96801],[-98.160117,18.967886],[-98.160502,18.965977],[-98.155919,18.958629],[-98.151468,18.965964],[-98.146613,18.96833]]]}},{"type":"Feature","properties":{"name":"2111402183173"},"geometry":{"type":"Polygon","coordinates":[[[-98.089158,19.100985],[-98.087656,19.103447],[-98.091511,19.104896],[-98.101876,19.104472],[-98.111355,19.091557],[-98.107875,19.089353],[-98.103032,19.091828],[-98.102035,19.090532],[-98.099116,19.093616],[-98.099133,19.087955],[-98.093485,19.093151],[-98.089158,19.100985]]]}},{"type":"Feature","properties":{"name":"211140194563A"},"geometry":{"type":"Polygon","coordinates":[[[-98.156485,19.107145],[-98.159973,19.110644],[-98.161159,19.107736],[-98.166176,19.105072],[-98.159997,19.103639],[-98.156485,19.107145]]]}},{"type":"Feature","properties":{"name":"2111402215127"},"geometry":{"type":"Polygon","coordinates":[[[-98.155264,18.95894],[-98.152604,18.960266],[-98.149061,18.957736],[-98.146787,18.959191],[-98.143085,18.967919],[-98.144951,18.968854],[-98.149646,18.967515],[-98.153131,18.964047],[-98.155264,18.95894]]]}},{"type":"Feature","properties":{"name":"2111401963239"},"geometry":{"type":"Polygon","coordinates":[[[-98.175494,18.917905],[-98.175495,18.912981],[-98.178789,18.906162],[-98.175055,18.904126],[-98.1755,18.907001],[-98.173905,18.907617],[-98.170216,18.903532],[-98.172383,18.907515],[-98.168783,18.910813],[-98.172141,18.913304],[-98.170113,18.914201],[-98.171002,18.916421],[-98.175494,18.917905]]]}},{"type":"Feature","properties":{"name":"2111404886727"},"geometry":{"type":"Polygon","coordinates":[[[-98.149427,18.999419],[-98.151031,18.99963],[-98.150053,18.996242],[-98.147664,18.99758],[-98.149427,18.999419]]]}},{"type":"Feature","properties":{"name":"2111401335108"},"geometry":{"type":"Polygon","coordinates":[[[-98.24079,18.910492],[-98.255887,18.901044],[-98.259016,18.889038],[-98.255006,18.888246],[-98.254101,18.891351],[-98.248435,18.896814],[-98.250247,18.896949],[-98.249428,18.898686],[-98.24596,18.898061],[-98.240183,18.906188],[-98.24079,18.910492]]]}},{"type":"Feature","properties":{"name":"2111402325659"},"geometry":{"type":"Polygon","coordinates":[[[-98.161484,18.949009],[-98.165208,18.946545],[-98.17018,18.939174],[-98.168147,18.935824],[-98.167081,18.935162],[-98.1654,18.938258],[-98.151305,18.937319],[-98.14691,18.939087],[-98.146935,18.941524],[-98.15094,18.946276],[-98.160297,18.949803],[-98.161484,18.949009]]]}},{"type":"Feature","properties":{"name":"2111403260018"},"geometry":{"type":"Polygon","coordinates":[[[-98.065593,19.099896],[-98.069555,19.098154],[-98.072398,19.090999],[-98.070942,19.090675],[-98.070413,19.092294],[-98.065794,19.091866],[-98.063557,19.097668],[-98.065255,19.097772],[-98.065593,19.099896]]]}},{"type":"Feature","properties":{"name":"2111401335112"},"geometry":{"type":"Polygon","coordinates":[[[-98.24079,18.910492],[-98.23933,18.911425],[-98.250128,18.909232],[-98.257992,18.904463],[-98.25712,18.909853],[-98.259397,18.910652],[-98.260715,18.905698],[-98.263127,18.904977],[-98.265193,18.901751],[-98.263787,18.89894],[-98.26139,18.898729],[-98.262127,18.896834],[-98.260804,18.896433],[-98.264057,18.894124],[-98.262658,18.8936],[-98.264121,18.891376],[-98.261108,18.888703],[-98.259033,18.888947],[-98.255887,18.901044],[-98.24079,18.910492]]]}},{"type":"Feature","properties":{"name":"2111402110959"},"geometry":{"type":"Polygon","coordinates":[[[-98.099897,19.153806],[-98.102568,19.147964],[-98.106193,19.146035],[-98.110496,19.139491],[-98.105997,19.139323],[-98.095481,19.152659],[-98.099897,19.153806]]]}},{"type":"Feature","properties":{"name":"2111402110944"},"geometry":{"type":"Polygon","coordinates":[[[-98.099897,19.153806],[-98.09656,19.159798],[-98.098041,19.159917],[-98.097341,19.164734],[-98.100319,19.163367],[-98.099358,19.161395],[-98.102697,19.15752],[-98.10349,19.152046],[-98.112242,19.140377],[-98.110496,19.139491],[-98.106193,19.146035],[-98.102568,19.147964],[-98.099897,19.153806]]]}},{"type":"Feature","properties":{"name":"2111403596695"},"geometry":{"type":"Polygon","coordinates":[[[-98.159017,18.978005],[-98.155372,18.979828],[-98.16085,18.983221],[-98.168832,18.978951],[-98.160228,18.980174],[-98.159017,18.978005]]]}},{"type":"Feature","properties":{"name":"2111403596426"},"geometry":{"type":"Polygon","coordinates":[[[-98.159017,18.978005],[-98.160228,18.980174],[-98.168668,18.977993],[-98.167613,18.972974],[-98.158677,18.976539],[-98.159017,18.978005]]]}},{"type":"Feature","properties":{"name":"2111403596430"},"geometry":{"type":"Polygon","coordinates":[[[-98.170224,18.969166],[-98.162646,18.96885],[-98.162342,18.972323],[-98.160588,18.972345],[-98.159144,18.976588],[-98.167613,18.972974],[-98.168136,18.974806],[-98.168499,18.970473],[-98.170224,18.969166]]]}},{"type":"Feature","properties":{"name":"2111404780037"},"geometry":{"type":"Polygon","coordinates":[[[-98.096096,19.083571],[-98.098795,19.0818],[-98.100572,19.077617],[-98.098734,19.076846],[-98.099525,19.075052],[-98.094425,19.081942],[-98.096096,19.083571]]]}},{"type":"Feature","properties":{"name":"2111401906568"},"geometry":{"type":"Polygon","coordinates":[[[-98.120133,19.104162],[-98.118128,19.10592],[-98.121098,19.107305],[-98.123838,19.101445],[-98.120133,19.104162]]]}},{"type":"Feature","properties":{"name":"2111401906657"},"geometry":{"type":"Polygon","coordinates":[[[-98.123788,19.101154],[-98.122259,19.099176],[-98.120133,19.104162],[-98.123788,19.101154]]]}},{"type":"Feature","properties":{"name":"2111401901016"},"geometry":{"type":"Polygon","coordinates":[[[-98.121098,19.107305],[-98.119414,19.109945],[-98.120853,19.112228],[-98.126864,19.109691],[-98.129165,19.11073],[-98.133442,19.106188],[-98.141159,19.102397],[-98.128988,19.091048],[-98.121098,19.107305]]]}},{"type":"Feature","properties":{"name":"2111402183188"},"geometry":{"type":"Polygon","coordinates":[[[-98.096096,19.083571],[-98.083487,19.094485],[-98.085824,19.096535],[-98.089885,19.089554],[-98.093317,19.091904],[-98.089158,19.100985],[-98.093485,19.093151],[-98.100958,19.087131],[-98.107151,19.078893],[-98.100949,19.075828],[-98.098795,19.0818],[-98.096096,19.083571]]]}},{"type":"Feature","properties":{"name":"2111402183169"},"geometry":{"type":"Polygon","coordinates":[[[-98.107875,19.089353],[-98.111355,19.091557],[-98.116013,19.086552],[-98.116764,19.083503],[-98.114359,19.083701],[-98.112286,19.086957],[-98.107875,19.089353]]]}},{"type":"Feature","properties":{"name":"2111402186248"},"geometry":{"type":"Polygon","coordinates":[[[-98.103951,19.083128],[-98.11656,19.083749],[-98.119776,19.07887],[-98.113366,19.074927],[-98.109754,19.080025],[-98.107151,19.078893],[-98.103951,19.083128]]]}},{"type":"Feature","properties":{"name":"2111402186233"},"geometry":{"type":"Polygon","coordinates":[[[-98.099502,19.087864],[-98.099116,19.093616],[-98.102035,19.090532],[-98.103842,19.091623],[-98.110151,19.088434],[-98.114189,19.083833],[-98.104469,19.082511],[-98.099502,19.087864]]]}},{"type":"Feature","properties":{"name":""},"geometry":{"type":"Polygon","coordinates":[[[-98.261246,18.96953],[-98.264009,18.971166],[-98.26698,18.967246],[-98.26303,18.965515],[-98.261246,18.96953]]]}},{"type":"Feature","properties":{"name":""},"geometry":{"type":"Polygon","coordinates":[[[-98.234565,18.986225],[-98.240456,18.989544],[-98.243619,18.984383],[-98.245234,18.985619],[-98.251039,18.98418],[-98.241228,18.980956],[-98.238917,18.978782],[-98.234565,18.986225]]]}},{"type":"Feature","properties":{"name":""},"geometry":{"type":"Polygon","coordinates":[[[-98.22697,19.095481],[-98.23743,19.101423],[-98.235616,19.093681],[-98.238013,19.087934],[-98.236529,19.086947],[-98.234831,19.092365],[-98.229555,19.090949],[-98.229791,19.095039],[-98.22697,19.095481]]]}},{"type":"Feature","properties":{"name":""},"geometry":{"type":"Polygon","coordinates":[[[-98.166229,19.105107],[-98.1772,19.111521],[-98.180846,19.10577],[-98.17771,19.104301],[-98.180876,19.099717],[-98.179074,19.100442],[-98.172968,19.096195],[-98.166229,19.105107]]]}},{"type":"Feature","properties":{"name":""},"geometry":{"type":"Polygon","coordinates":[[[-98.222413,19.136617],[-98.224537,19.137926],[-98.22545,19.135134],[-98.229418,19.134311],[-98.228847,19.131259],[-98.230793,19.129229],[-98.231046,19.124553],[-98.22876,19.122812],[-98.232259,19.118335],[-98.228962,19.115898],[-98.23185,19.109047],[-98.234463,19.108124],[-98.232558,19.101968],[-98.230154,19.103375],[-98.231091,19.105115],[-98.22811,19.111825],[-98.227742,19.12394],[-98.225965,19.13123],[-98.222413,19.136617]]]}},{"type":"Feature","properties":{"name":""},"geometry":{"type":"Polygon","coordinates":[[[-98.192159,19.102619],[-98.194585,19.101762],[-98.194835,19.097823],[-98.197623,19.092599],[-98.195809,19.091159],[-98.198938,19.089486],[-98.193966,19.090497],[-98.183691,19.097324],[-98.183085,19.099823],[-98.186884,19.099606],[-98.189796,19.097575],[-98.192769,19.100039],[-98.192159,19.102619]]]}},{"type":"Feature","properties":{"name":""},"geometry":{"type":"Polygon","coordinates":[[[-98.196912,19.116502],[-98.204408,19.11491],[-98.204093,19.111252],[-98.199461,19.110332],[-98.198958,19.113082],[-98.195729,19.114775],[-98.196912,19.116502]]]}},{"type":"Feature","properties":{"name":""},"geometry":{"type":"Polygon","coordinates":[[[-98.184512,19.099887],[-98.188708,19.101822],[-98.18892,19.105383],[-98.190983,19.106476],[-98.192769,19.100039],[-98.18941,19.097529],[-98.184512,19.099887]]]}},{"type":"Feature","properties":{"name":""},"geometry":{"type":"Polygon","coordinates":[[[-98.169149,18.95887],[-98.175082,18.96065],[-98.176507,18.957203],[-98.169227,18.955594],[-98.169149,18.95887]]]}},{"type":"Feature","properties":{"name":""},"geometry":{"type":"Polygon","coordinates":[[[-98.270556,18.979475],[-98.27356,18.981435],[-98.27706,18.976116],[-98.273889,18.974476],[-98.270556,18.979475]]]}},{"type":"Feature","properties":{"name":""},"geometry":{"type":"Polygon","coordinates":[[[-98.259208,18.99095],[-98.260254,18.992343],[-98.265328,18.992119],[-98.267077,18.989056],[-98.265004,18.987817],[-98.262535,18.989391],[-98.262488,18.991439],[-98.259044,18.989166],[-98.259208,18.99095]]]}},{"type":"Feature","properties":{"name":""},"geometry":{"type":"Polygon","coordinates":[[[-98.233261,18.965097],[-98.231233,18.964917],[-98.230575,18.970254],[-98.234517,18.970717],[-98.234917,18.969119],[-98.232753,18.968856],[-98.233261,18.965097]]]}},{"type":"Feature","properties":{"name":""},"geometry":{"type":"Polygon","coordinates":[[[-98.268145,18.967891],[-98.270127,18.968979],[-98.271678,18.967177],[-98.275352,18.97016],[-98.276804,18.969711],[-98.277392,18.960612],[-98.270596,18.964241],[-98.270493,18.966274],[-98.268145,18.967891]]]}},{"type":"Feature","properties":{"name":""},"geometry":{"type":"Polygon","coordinates":[[[-98.265917,18.977238],[-98.270434,18.979687],[-98.273889,18.974476],[-98.269759,18.97216],[-98.265917,18.977238]]]}},{"type":"Feature","properties":{"name":""},"geometry":{"type":"Polygon","coordinates":[[[-98.124782,19.03641],[-98.128716,19.033199],[-98.128272,19.031343],[-98.122919,19.031709],[-98.121553,19.033302],[-98.124782,19.03641]]]}},{"type":"Feature","properties":{"name":""},"geometry":{"type":"Polygon","coordinates":[[[-98.195846,19.107804],[-98.198701,19.108036],[-98.20158,19.096679],[-98.200169,19.095296],[-98.196783,19.098819],[-98.195846,19.107804]]]}},{"type":"Feature","properties":{"name":""},"geometry":{"type":"Polygon","coordinates":[[[-98.273889,18.974476],[-98.275814,18.975602],[-98.277379,18.973372],[-98.275472,18.972158],[-98.273889,18.974476]]]}},{"type":"Feature","properties":{"name":""},"geometry":{"type":"Polygon","coordinates":[[[-98.226225,18.961458],[-98.22792,18.959904],[-98.225427,18.95806],[-98.224397,18.960551],[-98.226225,18.961458]]]}},{"type":"Feature","properties":{"name":""},"geometry":{"type":"Polygon","coordinates":[[[-98.124774,19.089987],[-98.127729,19.088845],[-98.120244,19.085293],[-98.119459,19.087736],[-98.124774,19.089987]]]}},{"type":"Feature","properties":{"name":""},"geometry":{"type":"Polygon","coordinates":[[[-98.244269,18.987991],[-98.245689,18.991102],[-98.250184,18.985362],[-98.243619,18.984383],[-98.244269,18.987991]]]}},{"type":"Feature","properties":{"name":""},"geometry":{"type":"Polygon","coordinates":[[[-98.130664,19.03273],[-98.133704,19.034246],[-98.139358,19.033916],[-98.135935,19.031243],[-98.136548,19.028982],[-98.130672,19.030048],[-98.130664,19.03273]]]}},{"type":"Feature","properties":{"name":""},"geometry":{"type":"Polygon","coordinates":[[[-98.145272,19.035138],[-98.147146,19.036502],[-98.14847,19.034151],[-98.147342,19.030095],[-98.143031,19.028811],[-98.145272,19.035138]]]}},{"type":"Feature","properties":{"name":""},"geometry":{"type":"Polygon","coordinates":[[[-98.19513,18.991363],[-98.197101,18.991529],[-98.197322,18.992958],[-98.197898,18.990339],[-98.20076,18.989512],[-98.196583,18.978732],[-98.19513,18.991363]]]}},{"type":"Feature","properties":{"name":""},"geometry":{"type":"Polygon","coordinates":[[[-98.240108,18.961361],[-98.243978,18.960796],[-98.242379,18.954247],[-98.238506,18.954959],[-98.240108,18.961361]]]}},{"type":"Feature","properties":{"name":""},"geometry":{"type":"Polygon","coordinates":[[[-98.241191,19.069361],[-98.244586,19.070854],[-98.246252,19.068219],[-98.245446,19.064582],[-98.241154,19.064068],[-98.242215,19.061699],[-98.240895,19.060513],[-98.237847,19.066511],[-98.241191,19.069361]]]}},{"type":"Feature","properties":{"name":""},"geometry":{"type":"Polygon","coordinates":[[[-98.109128,19.065541],[-98.118964,19.067244],[-98.114412,19.066239],[-98.117252,19.063947],[-98.113616,19.061456],[-98.109128,19.065541]]]}},{"type":"Feature","properties":{"name":""},"geometry":{"type":"Polygon","coordinates":[[[-98.221574,19.002999],[-98.224909,19.004708],[-98.226361,19.00222],[-98.224441,19.001235],[-98.22825,18.996449],[-98.22592,18.995091],[-98.223858,18.998908],[-98.220663,18.998457],[-98.220631,19.001014],[-98.219211,19.000966],[-98.221574,19.002999]]]}},{"type":"Feature","properties":{"name":""},"geometry":{"type":"Polygon","coordinates":[[[-98.225658,18.999114],[-98.230576,19.001681],[-98.234718,18.99479],[-98.230629,18.992566],[-98.225658,18.999114]]]}},{"type":"Feature","properties":{"name":""},"geometry":{"type":"Polygon","coordinates":[[[-98.21044,19.112449],[-98.214544,19.112738],[-98.213953,19.105319],[-98.207439,19.099471],[-98.21044,19.112449]]]}},{"type":"Feature","properties":{"name":""},"geometry":{"type":"Polygon","coordinates":[[[-98.238917,18.978782],[-98.242402,18.978507],[-98.247447,18.972508],[-98.241229,18.969081],[-98.238917,18.978782]]]}},{"type":"Feature","properties":{"name":""},"geometry":{"type":"Polygon","coordinates":[[[-98.240263,18.979451],[-98.243515,18.981737],[-98.250926,18.974425],[-98.247447,18.972508],[-98.240263,18.979451]]]}},{"type":"Feature","properties":{"name":""},"geometry":{"type":"Polygon","coordinates":[[[-98.243515,18.981737],[-98.248669,18.983301],[-98.254218,18.976219],[-98.250926,18.974425],[-98.243515,18.981737]]]}},{"type":"Feature","properties":{"name":""},"geometry":{"type":"Polygon","coordinates":[[[-98.179432,19.04941],[-98.185221,19.058255],[-98.184017,19.059666],[-98.187464,19.058581],[-98.187963,19.057222],[-98.185094,19.053141],[-98.18542,19.050645],[-98.188254,19.048075],[-98.182264,19.04613],[-98.179432,19.04941]]]}},{"type":"Feature","properties":{"name":""},"geometry":{"type":"Polygon","coordinates":[[[-98.175574,19.074778],[-98.178276,19.076545],[-98.182766,19.072895],[-98.179251,19.070619],[-98.175574,19.074778]]]}},{"type":"Feature","properties":{"name":""},"geometry":{"type":"Polygon","coordinates":[[[-98.202974,19.082449],[-98.206164,19.089736],[-98.207008,19.087964],[-98.213109,19.088395],[-98.210336,19.087571],[-98.212281,19.081759],[-98.211084,19.080999],[-98.202974,19.082449]]]}},{"type":"Feature","properties":{"name":""},"geometry":{"type":"Polygon","coordinates":[[[-98.187893,18.959113],[-98.191655,18.966027],[-98.199893,18.964625],[-98.190185,18.959693],[-98.188768,18.957398],[-98.187893,18.959113]]]}},{"type":"Feature","properties":{"name":""},"geometry":{"type":"Polygon","coordinates":[[[-98.162061,18.954462],[-98.168782,18.958826],[-98.169227,18.955594],[-98.172677,18.956341],[-98.17159,18.953121],[-98.164358,18.950462],[-98.162253,18.951416],[-98.162061,18.954462]]]}},{"type":"Feature","properties":{"name":""},"geometry":{"type":"Polygon","coordinates":[[[-98.18538,19.070563],[-98.188387,19.072119],[-98.192697,19.064653],[-98.186785,19.064952],[-98.18538,19.070563]]]}},{"type":"Feature","properties":{"name":""},"geometry":{"type":"Polygon","coordinates":[[[-98.184614,19.071055],[-98.186772,19.065083],[-98.184885,19.064847],[-98.186022,19.060066],[-98.183306,19.060451],[-98.17857,19.065683],[-98.184614,19.071055]]]}},{"type":"Feature","properties":{"name":""},"geometry":{"type":"Polygon","coordinates":[[[-98.186785,19.064952],[-98.190782,19.064703],[-98.192074,19.06077],[-98.187837,19.059297],[-98.186227,19.060131],[-98.184885,19.064847],[-98.186785,19.064952]]]}},{"type":"Feature","properties":{"name":""},"geometry":{"type":"Polygon","coordinates":[[[-98.121383,19.07197],[-98.123973,19.073079],[-98.127761,19.068654],[-98.133474,19.066778],[-98.136901,19.063017],[-98.134379,19.062785],[-98.12808,19.066295],[-98.122825,19.064349],[-98.118718,19.067454],[-98.124516,19.068563],[-98.121383,19.07197]]]}},{"type":"Feature","properties":{"name":""},"geometry":{"type":"Polygon","coordinates":[[[-98.233578,18.973746],[-98.236716,18.975512],[-98.237817,18.971663],[-98.234517,18.970717],[-98.233578,18.973746]]]}},{"type":"Feature","properties":{"name":""},"geometry":{"type":"Polygon","coordinates":[[[-98.248749,18.987188],[-98.251852,18.984483],[-98.253847,18.985689],[-98.260384,18.981149],[-98.258006,18.980606],[-98.258709,18.979764],[-98.255954,18.977779],[-98.248749,18.987188]]]}},{"type":"Feature","properties":{"name":""},"geometry":{"type":"Polygon","coordinates":[[[-98.107151,19.078893],[-98.109754,19.080025],[-98.11543,19.071597],[-98.107787,19.066934],[-98.105008,19.074034],[-98.101788,19.075898],[-98.107151,19.078893]]]}},{"type":"Feature","properties":{"name":""},"geometry":{"type":"Polygon","coordinates":[[[-98.260802,18.973393],[-98.266797,18.97592],[-98.269759,18.97216],[-98.265696,18.969859],[-98.260802,18.973393]]]}},{"type":"Feature","properties":{"name":""},"geometry":{"type":"Polygon","coordinates":[[[-98.200255,18.965093],[-98.205556,18.963495],[-98.202986,18.961669],[-98.200255,18.965093]]]}},{"type":"Feature","properties":{"name":""},"geometry":{"type":"Polygon","coordinates":[[[-98.259044,18.989166],[-98.262488,18.991439],[-98.262535,18.989391],[-98.265004,18.987817],[-98.2681,18.989635],[-98.268876,18.988466],[-98.265761,18.986682],[-98.267088,18.984674],[-98.261369,18.980554],[-98.253787,18.985718],[-98.259044,18.989166]]]}},{"type":"Feature","properties":{"name":""},"geometry":{"type":"Polygon","coordinates":[[[-98.168352,18.976027],[-98.170984,18.97656],[-98.173237,18.973346],[-98.17549,18.974208],[-98.175851,18.970764],[-98.174401,18.96947],[-98.175869,18.967926],[-98.169231,18.970797],[-98.168352,18.976027]]]}},{"type":"Feature","properties":{"name":""},"geometry":{"type":"Polygon","coordinates":[[[-98.124774,19.089987],[-98.120543,19.096879],[-98.121627,19.098105],[-98.128491,19.09184],[-98.128924,19.088537],[-98.124774,19.089987]]]}},{"type":"Feature","properties":{"name":""},"geometry":{"type":"Polygon","coordinates":[[[-98.126899,19.083626],[-98.130945,19.085259],[-98.134094,19.082554],[-98.130306,19.081275],[-98.131969,19.080141],[-98.130289,19.079003],[-98.121557,19.075378],[-98.119776,19.07887],[-98.126899,19.083626]]]}},{"type":"Feature","properties":{"name":""},"geometry":{"type":"Polygon","coordinates":[[[-98.22418,18.956731],[-98.224259,18.959889],[-98.225722,18.957767],[-98.22418,18.956731]]]}},{"type":"Feature","properties":{"name":""},"geometry":{"type":"Polygon","coordinates":[[[-98.242143,18.945013],[-98.244827,18.946823],[-98.245641,18.945009],[-98.24063,18.942215],[-98.242143,18.945013]]]}},{"type":"Feature","properties":{"name":""},"geometry":{"type":"Polygon","coordinates":[[[-98.18878,18.975161],[-98.18726,18.97977],[-98.19327,18.983489],[-98.196334,18.982509],[-98.196583,18.978732],[-98.192167,18.973385],[-98.18878,18.975161]]]}},{"type":"Feature","properties":{"name":""},"geometry":{"type":"Polygon","coordinates":[[[-98.117252,19.063947],[-98.114412,19.066239],[-98.118964,19.067244],[-98.122942,19.064244],[-98.119806,19.062085],[-98.117252,19.063947]]]}},{"type":"Feature","properties":{"name":""},"geometry":{"type":"Polygon","coordinates":[[[-98.230154,19.103375],[-98.232558,19.101968],[-98.232984,19.104592],[-98.23743,19.101423],[-98.226635,19.095258],[-98.223883,19.100505],[-98.227927,19.100246],[-98.230154,19.103375]]]}},{"type":"Feature","properties":{"name":""},"geometry":{"type":"Polygon","coordinates":[[[-98.232443,18.977918],[-98.237863,18.981018],[-98.238631,18.979628],[-98.234624,18.976368],[-98.232443,18.977918]]]}},{"type":"Feature","properties":{"name":""},"geometry":{"type":"Polygon","coordinates":[[[-98.203861,19.115781],[-98.208915,19.115943],[-98.208042,19.106307],[-98.204093,19.111252],[-98.205161,19.114049],[-98.203861,19.115781]]]}},{"type":"Feature","properties":{"name":""},"geometry":{"type":"Polygon","coordinates":[[[-98.240044,19.082815],[-98.239449,19.085325],[-98.241041,19.088011],[-98.242675,19.086189],[-98.246196,19.086331],[-98.242859,19.083494],[-98.242817,19.078932],[-98.239937,19.080126],[-98.240044,19.082815]]]}},{"type":"Feature","properties":{"name":""},"geometry":{"type":"Polygon","coordinates":[[[-98.234517,18.970717],[-98.237817,18.971663],[-98.238659,18.967676],[-98.233315,18.964775],[-98.232753,18.968856],[-98.234917,18.969119],[-98.234517,18.970717]]]}},{"type":"Feature","properties":{"name":""},"geometry":{"type":"Polygon","coordinates":[[[-98.269759,18.97216],[-98.273889,18.974476],[-98.276447,18.969925],[-98.271678,18.967177],[-98.270127,18.968979],[-98.26698,18.967246],[-98.265696,18.969859],[-98.269759,18.97216]]]}},{"type":"Feature","properties":{"name":""},"geometry":{"type":"Polygon","coordinates":[[[-98.275626,18.978292],[-98.278365,18.980005],[-98.279042,18.976496],[-98.27706,18.976116],[-98.275626,18.978292]]]}},{"type":"Feature","properties":{"name":""},"geometry":{"type":"Polygon","coordinates":[[[-98.216465,18.986211],[-98.218798,18.98829],[-98.219774,18.982705],[-98.216465,18.986211]]]}},{"type":"Feature","properties":{"name":""},"geometry":{"type":"Polygon","coordinates":[[[-98.130781,19.035769],[-98.130571,19.043521],[-98.13596,19.042722],[-98.135276,19.039612],[-98.137311,19.034226],[-98.130664,19.03273],[-98.130781,19.035769]]]}},{"type":"Feature","properties":{"name":""},"geometry":{"type":"Polygon","coordinates":[[[-98.254072,18.994037],[-98.252584,18.998145],[-98.254681,18.999482],[-98.255617,18.997364],[-98.258142,18.997347],[-98.257312,18.99374],[-98.260254,18.992343],[-98.259208,18.99095],[-98.256321,18.991303],[-98.258296,18.988576],[-98.251852,18.984483],[-98.247521,18.988766],[-98.250013,18.992194],[-98.251286,18.989657],[-98.254206,18.992481],[-98.254956,18.991738],[-98.254072,18.994037]]]}},{"type":"Feature","properties":{"name":""},"geometry":{"type":"Polygon","coordinates":[[[-98.26698,18.967246],[-98.270493,18.966274],[-98.270455,18.964493],[-98.265564,18.961941],[-98.2633,18.963826],[-98.260588,18.962302],[-98.261194,18.964719],[-98.26698,18.967246]]]}},{"type":"Feature","properties":{"name":""},"geometry":{"type":"Polygon","coordinates":[[[-98.203861,19.115781],[-98.205517,19.127562],[-98.204133,19.130075],[-98.206214,19.133264],[-98.210072,19.132923],[-98.222413,19.136617],[-98.218621,19.121299],[-98.215416,19.122467],[-98.215693,19.123756],[-98.210109,19.118947],[-98.208915,19.115943],[-98.203861,19.115781]]]}},{"type":"Feature","properties":{"name":""},"geometry":{"type":"Polygon","coordinates":[[[-98.273419,18.957215],[-98.273108,18.958878],[-98.275478,18.959277],[-98.274282,18.958341],[-98.275688,18.956093],[-98.273309,18.955433],[-98.270098,18.951395],[-98.269566,18.956482],[-98.273419,18.957215]]]}},{"type":"Feature","properties":{"name":""},"geometry":{"type":"Polygon","coordinates":[[[-98.257851,18.957289],[-98.261151,18.959032],[-98.264701,18.958534],[-98.2669,18.956342],[-98.263754,18.953546],[-98.261179,18.954261],[-98.260647,18.952215],[-98.257851,18.957289]]]}},{"type":"Feature","properties":{"name":""},"geometry":{"type":"Polygon","coordinates":[[[-98.200744,19.110519],[-98.204093,19.111252],[-98.208271,19.106206],[-98.20797,19.103455],[-98.203332,19.101494],[-98.202072,19.104655],[-98.199164,19.104782],[-98.198817,19.107514],[-98.199996,19.107492],[-98.200744,19.110519]]]}},{"type":"Feature","properties":{"name":""},"geometry":{"type":"Polygon","coordinates":[[[-98.279325,18.979356],[-98.28096,18.980074],[-98.279695,18.978347],[-98.282472,18.975689],[-98.276574,18.969772],[-98.275472,18.972158],[-98.277379,18.973372],[-98.275814,18.975602],[-98.279042,18.976496],[-98.279325,18.979356]]]}},{"type":"Feature","properties":{"name":""},"geometry":{"type":"Polygon","coordinates":[[[-98.251358,18.969376],[-98.256748,18.973339],[-98.258923,18.972437],[-98.260329,18.973763],[-98.264009,18.971166],[-98.254712,18.965782],[-98.251358,18.969376]]]}},{"type":"Feature","properties":{"name":""},"geometry":{"type":"Polygon","coordinates":[[[-98.261066,19.045441],[-98.259595,19.047944],[-98.264897,19.048992],[-98.268666,19.046513],[-98.261066,19.045441]]]}},{"type":"Feature","properties":{"name":""},"geometry":{"type":"Polygon","coordinates":[[[-98.234624,18.976368],[-98.238631,18.979628],[-98.240027,18.974959],[-98.237467,18.973684],[-98.236716,18.975512],[-98.233578,18.973746],[-98.23279,18.975997],[-98.234624,18.976368]]]}},{"type":"Feature","properties":{"name":""},"geometry":{"type":"Polygon","coordinates":[[[-98.242735,19.079242],[-98.244141,19.084441],[-98.251884,19.083511],[-98.242735,19.079242]]]}},{"type":"Feature","properties":{"name":""},"geometry":{"type":"Polygon","coordinates":[[[-98.244877,19.070811],[-98.262059,19.078167],[-98.26372,19.076968],[-98.255703,19.07194],[-98.244877,19.070811]]]}},{"type":"Feature","properties":{"name":""},"geometry":{"type":"Polygon","coordinates":[[[-98.192205,19.107197],[-98.195846,19.107804],[-98.196361,19.100334],[-98.199272,19.095036],[-98.196281,19.094351],[-98.194585,19.101762],[-98.192159,19.102619],[-98.190983,19.106476],[-98.192205,19.107197]]]}},{"type":"Feature","properties":{"name":""},"geometry":{"type":"Polygon","coordinates":[[[-98.230714,18.976019],[-98.232378,18.977946],[-98.234624,18.976368],[-98.230714,18.976019]]]}},{"type":"Feature","properties":{"name":""},"geometry":{"type":"Polygon","coordinates":[[[-98.162007,18.959866],[-98.162272,18.964483],[-98.167384,18.965185],[-98.168198,18.961947],[-98.173865,18.963056],[-98.165711,18.959296],[-98.162007,18.959866]]]}},{"type":"Feature","properties":{"name":""},"geometry":{"type":"Polygon","coordinates":[[[-98.236306,18.945875],[-98.237421,18.94715],[-98.239983,18.945441],[-98.23969,18.943842],[-98.236306,18.945875]]]}},{"type":"Feature","properties":{"name":""},"geometry":{"type":"Polygon","coordinates":[[[-98.269589,18.964014],[-98.276843,18.961196],[-98.277089,18.959658],[-98.273108,18.958878],[-98.273419,18.957215],[-98.269589,18.964014]]]}},{"type":"Feature","properties":{"name":""},"geometry":{"type":"Polygon","coordinates":[[[-98.125558,19.036706],[-98.127493,19.037606],[-98.130781,19.035769],[-98.130672,19.030048],[-98.128306,19.031298],[-98.128716,19.033199],[-98.125558,19.036706]]]}},{"type":"Feature","properties":{"name":""},"geometry":{"type":"Polygon","coordinates":[[[-98.134379,19.062785],[-98.136901,19.063017],[-98.141289,19.056811],[-98.135261,19.055735],[-98.131248,19.058572],[-98.132641,19.062614],[-98.134379,19.062785]]]}},{"type":"Feature","properties":{"name":""},"geometry":{"type":"Polygon","coordinates":[[[-98.137645,19.066993],[-98.139067,19.068213],[-98.142313,19.064004],[-98.137952,19.060476],[-98.135341,19.065213],[-98.137645,19.066993]]]}},{"type":"Feature","properties":{"name":""},"geometry":{"type":"Polygon","coordinates":[[[-98.171764,19.047333],[-98.167294,19.051084],[-98.176057,19.053263],[-98.176151,19.05483],[-98.178082,19.049585],[-98.182264,19.04613],[-98.176499,19.045965],[-98.177235,19.044836],[-98.171764,19.047333]]]}},{"type":"Feature","properties":{"name":""},"geometry":{"type":"Polygon","coordinates":[[[-98.249706,18.949598],[-98.249381,18.950482],[-98.250473,18.94951],[-98.249706,18.949598]]]}},{"type":"Feature","properties":{"name":""},"geometry":{"type":"Polygon","coordinates":[[[-98.184595,18.989897],[-98.180222,18.990206],[-98.180132,18.993823],[-98.182582,18.99513],[-98.184591,18.993123],[-98.185,18.995245],[-98.184595,18.989897]]]}},{"type":"Feature","properties":{"name":""},"geometry":{"type":"Polygon","coordinates":[[[-98.179251,19.070619],[-98.175701,19.069137],[-98.173559,19.071581],[-98.175179,19.072968],[-98.174174,19.073627],[-98.175574,19.074778],[-98.179251,19.070619]]]}},{"type":"Feature","properties":{"name":""},"geometry":{"type":"Polygon","coordinates":[[[-98.224915,18.988191],[-98.226844,18.989569],[-98.230351,18.984221],[-98.226595,18.98215],[-98.224915,18.988191]]]}},{"type":"Feature","properties":{"name":""},"geometry":{"type":"Polygon","coordinates":[[[-98.127985,19.087724],[-98.129183,19.088146],[-98.130945,19.085259],[-98.127665,19.083418],[-98.124359,19.085835],[-98.127985,19.087724]]]}},{"type":"Feature","properties":{"name":""},"geometry":{"type":"Polygon","coordinates":[[[-98.234359,18.99114],[-98.236323,18.98917],[-98.233917,18.987243],[-98.23226,18.989933],[-98.234359,18.99114]]]}},{"type":"Feature","properties":{"name":""},"geometry":{"type":"Polygon","coordinates":[[[-98.184325,19.007966],[-98.188334,19.007452],[-98.18461,19.005558],[-98.184325,19.007966]]]}},{"type":"Feature","properties":{"name":""},"geometry":{"type":"Polygon","coordinates":[[[-98.134626,19.083779],[-98.141966,19.08654],[-98.144721,19.082223],[-98.138903,19.076952],[-98.134626,19.083779]]]}},{"type":"Feature","properties":{"name":""},"geometry":{"type":"Polygon","coordinates":[[[-98.138903,19.076952],[-98.144721,19.082223],[-98.146204,19.078815],[-98.144256,19.076912],[-98.140931,19.075063],[-98.138903,19.076952]]]}},{"type":"Feature","properties":{"name":""},"geometry":{"type":"Polygon","coordinates":[[[-98.157517,19.047414],[-98.162586,19.044339],[-98.163416,19.041691],[-98.152947,19.03978],[-98.152699,19.042396],[-98.160191,19.043986],[-98.157517,19.047414]]]}},{"type":"Feature","properties":{"name":""},"geometry":{"type":"Polygon","coordinates":[[[-98.232696,18.998116],[-98.236881,19.000413],[-98.238883,18.997052],[-98.234702,18.994817],[-98.232696,18.998116]]]}},{"type":"Feature","properties":{"name":""},"geometry":{"type":"Polygon","coordinates":[[[-98.147342,19.030095],[-98.148128,19.033638],[-98.149146,19.031677],[-98.151739,19.031716],[-98.149208,19.025899],[-98.150478,19.024948],[-98.149492,19.016982],[-98.144327,19.020209],[-98.1392,19.019766],[-98.140357,19.024099],[-98.146636,19.02454],[-98.147342,19.030095]]]}},{"type":"Feature","properties":{"name":""},"geometry":{"type":"Polygon","coordinates":[[[-98.190391,18.990509],[-98.192394,18.99025],[-98.191678,18.992031],[-98.19513,18.991363],[-98.195647,18.985207],[-98.19326,18.985573],[-98.193096,18.988147],[-98.190391,18.990509]]]}},{"type":"Feature","properties":{"name":""},"geometry":{"type":"Polygon","coordinates":[[[-98.22592,18.995091],[-98.22825,18.996449],[-98.231155,18.99172],[-98.226715,18.989778],[-98.225794,18.991233],[-98.227627,18.991839],[-98.22592,18.995091]]]}},{"type":"Feature","properties":{"name":""},"geometry":{"type":"Polygon","coordinates":[[[-98.218194,18.996892],[-98.220375,18.995795],[-98.217658,18.989466],[-98.21545,18.991426],[-98.214197,18.990846],[-98.211766,18.99487],[-98.218194,18.996892]]]}},{"type":"Feature","properties":{"name":""},"geometry":{"type":"Polygon","coordinates":[[[-98.226715,18.989778],[-98.231155,18.99172],[-98.234565,18.986225],[-98.230351,18.984221],[-98.226715,18.989778]]]}},{"type":"Feature","properties":{"name":""},"geometry":{"type":"Polygon","coordinates":[[[-98.181659,19.009197],[-98.181141,19.010948],[-98.184044,19.012522],[-98.184325,19.007966],[-98.181659,19.009197]]]}},{"type":"Feature","properties":{"name":""},"geometry":{"type":"Polygon","coordinates":[[[-98.179045,19.100428],[-98.187773,19.094338],[-98.184566,19.090256],[-98.184065,19.093422],[-98.179045,19.100428]]]}},{"type":"Feature","properties":{"name":""},"geometry":{"type":"Polygon","coordinates":[[[-98.180876,19.099717],[-98.17771,19.104301],[-98.179908,19.106425],[-98.183442,19.09824],[-98.180876,19.099717]]]}},{"type":"Feature","properties":{"name":""},"geometry":{"type":"Polygon","coordinates":[[[-98.230483,18.962037],[-98.231508,18.963746],[-98.231742,18.962137],[-98.234974,18.962221],[-98.240631,18.964075],[-98.240108,18.961361],[-98.23707,18.961129],[-98.236477,18.959129],[-98.230763,18.960167],[-98.230483,18.962037]]]}},{"type":"Feature","properties":{"name":""},"geometry":{"type":"Polygon","coordinates":[[[-98.230928,18.95922],[-98.236531,18.959147],[-98.23508,18.95347],[-98.232841,18.953856],[-98.230928,18.95922]]]}},{"type":"Feature","properties":{"name":""},"geometry":{"type":"Polygon","coordinates":[[[-98.238506,18.954959],[-98.244809,18.955324],[-98.244786,18.951903],[-98.238075,18.953264],[-98.238506,18.954959]]]}},{"type":"Feature","properties":{"name":""},"geometry":{"type":"Polygon","coordinates":[[[-98.185818,19.076468],[-98.188633,19.077963],[-98.191169,19.073591],[-98.188387,19.072119],[-98.185818,19.076468]]]}},{"type":"Feature","properties":{"name":""},"geometry":{"type":"Polygon","coordinates":[[[-98.189287,19.084211],[-98.199534,19.086047],[-98.198186,19.080112],[-98.192951,19.080268],[-98.181785,19.07517],[-98.180381,19.082805],[-98.189287,19.084211]]]}},{"type":"Feature","properties":{"name":""},"geometry":{"type":"Polygon","coordinates":[[[-98.228254,18.957631],[-98.230928,18.95922],[-98.232377,18.955726],[-98.230158,18.955454],[-98.227953,18.952661],[-98.224885,18.953996],[-98.226574,18.955033],[-98.225213,18.956801],[-98.228254,18.957631]]]}},{"type":"Feature","properties":{"name":""},"geometry":{"type":"Polygon","coordinates":[[[-98.214197,18.990846],[-98.21545,18.991426],[-98.217658,18.989466],[-98.219473,18.993189],[-98.222821,18.990656],[-98.216465,18.986211],[-98.214197,18.990846]]]}},{"type":"Feature","properties":{"name":""},"geometry":{"type":"Polygon","coordinates":[[[-98.226723,18.961729],[-98.230483,18.962037],[-98.230928,18.95922],[-98.228254,18.957631],[-98.227177,18.959065],[-98.228903,18.960071],[-98.226723,18.961729]]]}},{"type":"Feature","properties":{"name":""},"geometry":{"type":"Polygon","coordinates":[[[-98.185297,19.01742],[-98.183729,19.016336],[-98.182124,19.019297],[-98.184003,19.020791],[-98.185297,19.01742]]]}},{"type":"Feature","properties":{"name":""},"geometry":{"type":"Polygon","coordinates":[[[-98.188616,19.003583],[-98.189998,19.003541],[-98.189535,19.001728],[-98.18667,18.998404],[-98.18678,19.002582],[-98.188616,19.003583]]]}},{"type":"Feature","properties":{"name":""},"geometry":{"type":"Polygon","coordinates":[[[-98.17431,18.963472],[-98.177889,18.964786],[-98.178368,18.96327],[-98.162061,18.954462],[-98.161885,18.955648],[-98.159427,18.955693],[-98.159037,18.95787],[-98.161035,18.959602],[-98.165711,18.959296],[-98.17431,18.963472]]]}},{"type":"Feature","properties":{"name":""},"geometry":{"type":"Polygon","coordinates":[[[-98.233215,19.047761],[-98.225322,19.041771],[-98.223027,19.04566],[-98.231809,19.049185],[-98.233215,19.047761]]]}},{"type":"Feature","properties":{"name":""},"geometry":{"type":"Polygon","coordinates":[[[-98.221996,19.085644],[-98.222869,19.087763],[-98.22897,19.086315],[-98.22779,19.076063],[-98.223231,19.085667],[-98.221996,19.085644]]]}},{"type":"Feature","properties":{"name":""},"geometry":{"type":"Polygon","coordinates":[[[-98.130988,19.089751],[-98.134528,19.088428],[-98.138325,19.092716],[-98.141966,19.08654],[-98.134626,19.083779],[-98.130988,19.089751]]]}},{"type":"Feature","properties":{"name":""},"geometry":{"type":"Polygon","coordinates":[[[-98.239987,19.070869],[-98.237332,19.070582],[-98.236226,19.078718],[-98.240044,19.082815],[-98.241031,19.0791],[-98.239386,19.074597],[-98.239987,19.070869]]]}},{"type":"Feature","properties":{"name":""},"geometry":{"type":"Polygon","coordinates":[[[-98.188633,19.077963],[-98.192951,19.080268],[-98.198186,19.080112],[-98.197768,19.07827],[-98.190324,19.075034],[-98.188633,19.077963]]]}},{"type":"Feature","properties":{"name":""},"geometry":{"type":"Polygon","coordinates":[[[-98.216795,18.985768],[-98.214073,18.985023],[-98.210619,18.994577],[-98.213226,18.993772],[-98.216795,18.985768]]]}},{"type":"Feature","properties":{"name":""},"geometry":{"type":"Polygon","coordinates":[[[-98.236211,19.058618],[-98.232814,19.06361],[-98.237847,19.066511],[-98.241147,19.061817],[-98.240847,19.059852],[-98.236211,19.058618]]]}},{"type":"Feature","properties":{"name":""},"geometry":{"type":"Polygon","coordinates":[[[-98.188254,19.048075],[-98.189347,19.048885],[-98.192505,19.042275],[-98.188308,19.040099],[-98.184643,19.04691],[-98.188254,19.048075]]]}},{"type":"Feature","properties":{"name":""},"geometry":{"type":"Polygon","coordinates":[[[-98.147094,19.041819],[-98.147055,19.044452],[-98.149579,19.04396],[-98.152367,19.047894],[-98.152805,19.040836],[-98.148292,19.039601],[-98.147094,19.041819]]]}},{"type":"Feature","properties":{"name":""},"geometry":{"type":"Polygon","coordinates":[[[-98.236211,19.058618],[-98.240751,19.059772],[-98.241554,19.058041],[-98.239576,19.056815],[-98.239879,19.054338],[-98.235995,19.052355],[-98.234567,19.054927],[-98.236745,19.056071],[-98.236211,19.058618]]]}},{"type":"Feature","properties":{"name":""},"geometry":{"type":"Polygon","coordinates":[[[-98.148292,19.039601],[-98.157354,19.040677],[-98.153184,19.035191],[-98.148692,19.037313],[-98.148292,19.039601]]]}},{"type":"Feature","properties":{"name":""},"geometry":{"type":"Polygon","coordinates":[[[-98.189997,19.037109],[-98.195127,19.039694],[-98.199306,19.032779],[-98.196609,19.032446],[-98.195747,19.034009],[-98.192567,19.032362],[-98.189997,19.037109]]]}},{"type":"Feature","properties":{"name":""},"geometry":{"type":"Polygon","coordinates":[[[-98.181693,19.028893],[-98.17917,19.02578],[-98.176484,19.02696],[-98.172586,19.034586],[-98.17946,19.031474],[-98.181693,19.028893]]]}},{"type":"Feature","properties":{"name":""},"geometry":{"type":"Polygon","coordinates":[[[-98.174003,19.03399],[-98.181635,19.037729],[-98.182456,19.036263],[-98.179628,19.033594],[-98.182983,19.029767],[-98.180573,19.029283],[-98.17946,19.031474],[-98.174003,19.03399]]]}},{"type":"Feature","properties":{"name":""},"geometry":{"type":"Polygon","coordinates":[[[-98.226361,19.00222],[-98.229452,19.003812],[-98.230576,19.001681],[-98.225658,18.999114],[-98.224441,19.001235],[-98.226361,19.00222]]]}},{"type":"Feature","properties":{"name":""},"geometry":{"type":"Polygon","coordinates":[[[-98.245446,19.064582],[-98.250148,19.065334],[-98.250791,19.059685],[-98.240751,19.059772],[-98.242215,19.061699],[-98.241154,19.064068],[-98.245446,19.064582]]]}},{"type":"Feature","properties":{"name":""},"geometry":{"type":"Polygon","coordinates":[[[-98.13644,19.038443],[-98.135276,19.039612],[-98.13596,19.042722],[-98.147947,19.041783],[-98.148708,19.037415],[-98.145346,19.035121],[-98.145616,19.038218],[-98.13644,19.038443]]]}},{"type":"Feature","properties":{"name":""},"geometry":{"type":"Polygon","coordinates":[[[-98.137311,19.034226],[-98.13644,19.038443],[-98.145616,19.038218],[-98.145272,19.035138],[-98.137311,19.034226]]]}},{"type":"Feature","properties":{"name":""},"geometry":{"type":"Polygon","coordinates":[[[-98.143693,19.062421],[-98.144912,19.063095],[-98.143043,19.065732],[-98.145891,19.063473],[-98.149358,19.066864],[-98.154332,19.061197],[-98.145793,19.059434],[-98.143693,19.062421]]]}},{"type":"Feature","properties":{"name":""},"geometry":{"type":"Polygon","coordinates":[[[-98.221928,18.994926],[-98.225136,18.996544],[-98.227627,18.991839],[-98.225794,18.991233],[-98.221928,18.994926]]]}},{"type":"Feature","properties":{"name":""},"geometry":{"type":"Polygon","coordinates":[[[-98.236977,18.948803],[-98.23309,18.948208],[-98.23508,18.95347],[-98.23769,18.951579],[-98.236977,18.948803]]]}},{"type":"Feature","properties":{"name":""},"geometry":{"type":"Polygon","coordinates":[[[-98.248669,18.983301],[-98.251039,18.98418],[-98.256259,18.977381],[-98.254218,18.976219],[-98.248669,18.983301]]]}},{"type":"Feature","properties":{"name":""},"geometry":{"type":"Polygon","coordinates":[[[-98.250013,18.992194],[-98.254072,18.994037],[-98.255411,18.99222],[-98.251286,18.989657],[-98.250013,18.992194]]]}},{"type":"Feature","properties":{"name":""},"geometry":{"type":"Polygon","coordinates":[[[-98.173561,19.057728],[-98.174859,19.059449],[-98.176441,19.058305],[-98.172325,19.055229],[-98.17246,19.053739],[-98.172394,19.058704],[-98.173561,19.057728]]]}},{"type":"Feature","properties":{"name":""},"geometry":{"type":"Polygon","coordinates":[[[-98.220456,18.954105],[-98.220975,18.955903],[-98.224885,18.953996],[-98.220456,18.954105]]]}},{"type":"Feature","properties":{"name":""},"geometry":{"type":"Polygon","coordinates":[[[-98.218345,19.059433],[-98.214329,19.064891],[-98.216579,19.066855],[-98.22343,19.058502],[-98.220017,19.055279],[-98.218345,19.059433]]]}},{"type":"Feature","properties":{"name":""},"geometry":{"type":"Polygon","coordinates":[[[-98.146922,19.052734],[-98.146934,19.055792],[-98.148892,19.057217],[-98.150959,19.055458],[-98.152229,19.050688],[-98.146922,19.052734]]]}},{"type":"Feature","properties":{"name":""},"geometry":{"type":"Polygon","coordinates":[[[-98.145793,19.059434],[-98.147492,19.059973],[-98.148892,19.057217],[-98.146934,19.055792],[-98.146922,19.052734],[-98.140812,19.055646],[-98.135261,19.055735],[-98.145793,19.059434]]]}},{"type":"Feature","properties":{"name":""},"geometry":{"type":"Polygon","coordinates":[[[-98.219211,19.000966],[-98.220631,19.001014],[-98.220663,18.998457],[-98.223858,18.998908],[-98.225136,18.996544],[-98.221928,18.994926],[-98.218205,18.996849],[-98.217327,19.000175],[-98.219211,19.000966]]]}},{"type":"Feature","properties":{"name":""},"geometry":{"type":"Polygon","coordinates":[[[-98.220442,19.09079],[-98.22178,19.09104],[-98.220325,19.088324],[-98.221612,19.085495],[-98.223231,19.085667],[-98.22652,19.078569],[-98.211084,19.080999],[-98.212281,19.081759],[-98.210623,19.086171],[-98.220442,19.09079]]]}},{"type":"Feature","properties":{"name":""},"geometry":{"type":"Polygon","coordinates":[[[-98.214793,18.995769],[-98.211413,19.00209],[-98.216021,19.004269],[-98.218194,18.996892],[-98.214793,18.995769]]]}},{"type":"Feature","properties":{"name":""},"geometry":{"type":"Polygon","coordinates":[[[-98.21044,19.112449],[-98.212672,19.116438],[-98.216598,19.117508],[-98.21571,19.1154],[-98.217012,19.112983],[-98.21044,19.112449]]]}},{"type":"Feature","properties":{"name":""},"geometry":{"type":"Polygon","coordinates":[[[-98.21282,19.093993],[-98.216199,19.09523],[-98.217467,19.097605],[-98.221722,19.091717],[-98.214701,19.089034],[-98.21282,19.093993]]]}},{"type":"Feature","properties":{"name":""},"geometry":{"type":"Polygon","coordinates":[[[-98.228192,19.079521],[-98.229734,19.080918],[-98.23296,19.074169],[-98.231866,19.072709],[-98.228669,19.073633],[-98.228192,19.079521]]]}},{"type":"Feature","properties":{"name":""},"geometry":{"type":"Polygon","coordinates":[[[-98.2681,18.989635],[-98.271003,18.991779],[-98.271666,18.987429],[-98.270495,18.986666],[-98.2681,18.989635]]]}},{"type":"Feature","properties":{"name":""},"geometry":{"type":"Polygon","coordinates":[[[-98.181659,19.009197],[-98.178913,19.013149],[-98.1824,19.015562],[-98.184044,19.012522],[-98.181141,19.010948],[-98.181659,19.009197]]]}},{"type":"Feature","properties":{"name":""},"geometry":{"type":"Polygon","coordinates":[[[-98.230629,18.992566],[-98.232743,18.993753],[-98.234359,18.99114],[-98.23226,18.989933],[-98.230629,18.992566]]]}},{"type":"Feature","properties":{"name":""},"geometry":{"type":"Polygon","coordinates":[[[-98.234702,18.994817],[-98.23804,18.996625],[-98.240076,18.993307],[-98.236768,18.991448],[-98.234702,18.994817]]]}},{"type":"Feature","properties":{"name":""},"geometry":{"type":"Polygon","coordinates":[[[-98.137952,19.060476],[-98.142313,19.064004],[-98.145793,19.059434],[-98.141289,19.056811],[-98.137952,19.060476]]]}},{"type":"Feature","properties":{"name":""},"geometry":{"type":"Polygon","coordinates":[[[-98.134001,19.071605],[-98.140722,19.073939],[-98.138791,19.071697],[-98.1411,19.068713],[-98.137645,19.066993],[-98.134001,19.071605]]]}},{"type":"Feature","properties":{"name":""},"geometry":{"type":"Polygon","coordinates":[[[-98.128623,19.069748],[-98.134001,19.071605],[-98.13777,19.066812],[-98.135341,19.065213],[-98.131159,19.066532],[-98.127761,19.068654],[-98.128623,19.069748]]]}},{"type":"Feature","properties":{"name":""},"geometry":{"type":"Polygon","coordinates":[[[-98.188941,19.053965],[-98.194843,19.057355],[-98.19753,19.052844],[-98.189347,19.048885],[-98.190661,19.051695],[-98.188941,19.053965]]]}},{"type":"Feature","properties":{"name":""},"geometry":{"type":"Polygon","coordinates":[[[-98.22361,19.021134],[-98.225856,19.01895],[-98.219938,19.015294],[-98.218168,19.01896],[-98.223535,19.019754],[-98.22361,19.021134]]]}},{"type":"Feature","properties":{"name":""},"geometry":{"type":"Polygon","coordinates":[[[-98.174851,19.097212],[-98.179045,19.100428],[-98.184048,19.092211],[-98.175831,19.091137],[-98.174818,19.093059],[-98.176986,19.094188],[-98.174851,19.097212]]]}},{"type":"Feature","properties":{"name":""},"geometry":{"type":"Polygon","coordinates":[[[-98.127312,19.071605],[-98.136182,19.075485],[-98.136543,19.077275],[-98.140722,19.073939],[-98.128623,19.069748],[-98.127312,19.071605]]]}},{"type":"Feature","properties":{"name":""},"geometry":{"type":"Polygon","coordinates":[[[-98.266559,18.962411],[-98.269589,18.964014],[-98.271624,18.960225],[-98.268462,18.958277],[-98.266559,18.962411]]]}},{"type":"Feature","properties":{"name":""},"geometry":{"type":"Polygon","coordinates":[[[-98.268462,18.958277],[-98.271624,18.960225],[-98.273419,18.957215],[-98.269566,18.956482],[-98.268462,18.958277]]]}},{"type":"Feature","properties":{"name":""},"geometry":{"type":"Polygon","coordinates":[[[-98.255954,18.977779],[-98.258709,18.979764],[-98.258006,18.980606],[-98.260384,18.981149],[-98.266797,18.97592],[-98.260802,18.973393],[-98.255954,18.977779]]]}},{"type":"Feature","properties":{"name":""},"geometry":{"type":"Polygon","coordinates":[[[-98.186227,19.060131],[-98.187837,19.059297],[-98.192649,19.061023],[-98.194843,19.057355],[-98.189126,19.053913],[-98.185415,19.053871],[-98.188095,19.057637],[-98.184838,19.059734],[-98.186227,19.060131]]]}},{"type":"Feature","properties":{"name":""},"geometry":{"type":"Polygon","coordinates":[[[-98.197182,19.063571],[-98.202316,19.065243],[-98.204819,19.068827],[-98.207777,19.065],[-98.203048,19.06183],[-98.197182,19.063571]]]}},{"type":"Feature","properties":{"name":""},"geometry":{"type":"Polygon","coordinates":[[[-98.196503,19.064691],[-98.199075,19.066168],[-98.202254,19.072444],[-98.204819,19.068827],[-98.202316,19.065243],[-98.197775,19.063424],[-98.196503,19.064691]]]}},{"type":"Feature","properties":{"name":""},"geometry":{"type":"Polygon","coordinates":[[[-98.198298,19.061659],[-98.197265,19.063426],[-98.202125,19.062112],[-98.205102,19.056535],[-98.202169,19.055163],[-98.198298,19.061659]]]}},{"type":"Feature","properties":{"name":""},"geometry":{"type":"Polygon","coordinates":[[[-98.218621,19.121299],[-98.219873,19.124731],[-98.227528,19.117215],[-98.22656,19.118475],[-98.224705,19.117497],[-98.225726,19.116192],[-98.22015,19.114366],[-98.219309,19.111678],[-98.214647,19.11223],[-98.217012,19.112983],[-98.21571,19.1154],[-98.216598,19.117508],[-98.21537,19.117844],[-98.218621,19.121299]]]}},{"type":"Feature","properties":{"name":""},"geometry":{"type":"Polygon","coordinates":[[[-98.22544,18.945485],[-98.219866,18.947104],[-98.218584,18.95292],[-98.22039,18.95331],[-98.2202,18.950998],[-98.22544,18.945485]]]}},{"type":"Feature","properties":{"name":""},"geometry":{"type":"Polygon","coordinates":[[[-98.204407,19.01969],[-98.20314,19.021931],[-98.20683,19.023842],[-98.210516,19.017067],[-98.208993,19.01266],[-98.204407,19.01969]]]}},{"type":"Feature","properties":{"name":""},"geometry":{"type":"Polygon","coordinates":[[[-98.220456,18.954105],[-98.228571,18.952527],[-98.230379,18.948432],[-98.227558,18.949443],[-98.22544,18.945485],[-98.2202,18.950998],[-98.220456,18.954105]]]}},{"type":"Feature","properties":{"name":""},"geometry":{"type":"Polygon","coordinates":[[[-98.176776,19.053343],[-98.181813,19.061784],[-98.184583,19.060042],[-98.185221,19.058255],[-98.179432,19.04941],[-98.178082,19.049585],[-98.176776,19.053343]]]}},{"type":"Feature","properties":{"name":""},"geometry":{"type":"Polygon","coordinates":[[[-98.114214,19.054104],[-98.11238,19.057194],[-98.115571,19.059338],[-98.122852,19.054151],[-98.114214,19.054104]]]}},{"type":"Feature","properties":{"name":""},"geometry":{"type":"Polygon","coordinates":[[[-98.198186,19.080112],[-98.198842,19.08304],[-98.204913,19.082034],[-98.201719,19.070995],[-98.199075,19.066168],[-98.196503,19.064691],[-98.195171,19.066853],[-98.198186,19.080112]]]}},{"type":"Feature","properties":{"name":""},"geometry":{"type":"Polygon","coordinates":[[[-98.205102,19.056535],[-98.208197,19.058071],[-98.211452,19.052137],[-98.206815,19.049741],[-98.211299,19.042089],[-98.210076,19.041479],[-98.202169,19.055163],[-98.205102,19.056535]]]}},{"type":"Feature","properties":{"name":""},"geometry":{"type":"Polygon","coordinates":[[[-98.191593,19.049756],[-98.19753,19.052844],[-98.200688,19.047521],[-98.199198,19.046735],[-98.201007,19.043693],[-98.199486,19.042913],[-98.200373,19.041385],[-98.198829,19.040597],[-98.195308,19.04671],[-98.193814,19.045941],[-98.191593,19.049756]]]}},{"type":"Feature","properties":{"name":""},"geometry":{"type":"Polygon","coordinates":[[[-98.151799,19.051868],[-98.156756,19.053465],[-98.158236,19.055497],[-98.164122,19.047709],[-98.160542,19.045563],[-98.151799,19.051868]]]}},{"type":"Feature","properties":{"name":""},"geometry":{"type":"Polygon","coordinates":[[[-98.211061,19.052824],[-98.212433,19.053509],[-98.217445,19.045256],[-98.211299,19.042089],[-98.206815,19.049741],[-98.211061,19.052824]]]}},{"type":"Feature","properties":{"name":""},"geometry":{"type":"Polygon","coordinates":[[[-98.197087,19.043667],[-98.198829,19.040597],[-98.195787,19.038998],[-98.184289,19.034179],[-98.182045,19.036974],[-98.197087,19.043667]]]}},{"type":"Feature","properties":{"name":""},"geometry":{"type":"Polygon","coordinates":[[[-98.179408,19.045802],[-98.182485,19.039989],[-98.172633,19.042483],[-98.173006,19.039337],[-98.170242,19.039367],[-98.169214,19.040992],[-98.171764,19.047333],[-98.177235,19.044836],[-98.176499,19.045965],[-98.179408,19.045802]]]}},{"type":"Feature","properties":{"name":""},"geometry":{"type":"Polygon","coordinates":[[[-98.167574,19.086547],[-98.172161,19.090038],[-98.17537,19.087329],[-98.177395,19.088543],[-98.180381,19.082805],[-98.17386,19.08171],[-98.167574,19.086547]]]}},{"type":"Feature","properties":{"name":""},"geometry":{"type":"Polygon","coordinates":[[[-98.185191,18.96778],[-98.182161,18.980013],[-98.186899,18.977566],[-98.185614,18.97658],[-98.186379,18.975427],[-98.191158,18.972929],[-98.194003,18.975951],[-98.196332,18.971826],[-98.193424,18.969722],[-98.19179,18.971642],[-98.190927,18.96967],[-98.188422,18.969677],[-98.188535,18.968042],[-98.185191,18.96778]]]}},{"type":"Feature","properties":{"name":""},"geometry":{"type":"Polygon","coordinates":[[[-98.14228,19.029399],[-98.147342,19.030095],[-98.146636,19.02454],[-98.140357,19.024099],[-98.14228,19.029399]]]}},{"type":"Feature","properties":{"name":""},"geometry":{"type":"Polygon","coordinates":[[[-98.236531,18.959147],[-98.23707,18.961129],[-98.240108,18.961361],[-98.23769,18.951579],[-98.23508,18.95347],[-98.236531,18.959147]]]}},{"type":"Feature","properties":{"name":""},"geometry":{"type":"Polygon","coordinates":[[[-98.23769,18.951579],[-98.244491,18.95054],[-98.24465,18.948469],[-98.243267,18.94872],[-98.244827,18.946823],[-98.241688,18.944687],[-98.238803,18.945447],[-98.236662,18.947414],[-98.23769,18.951579]]]}},{"type":"Feature","properties":{"name":""},"geometry":{"type":"Polygon","coordinates":[[[-98.255772,18.966352],[-98.261246,18.96953],[-98.263531,18.965366],[-98.257867,18.962846],[-98.255772,18.966352]]]}},{"type":"Feature","properties":{"name":""},"geometry":{"type":"Polygon","coordinates":[[[-98.18281,19.074881],[-98.185818,19.076468],[-98.188387,19.072119],[-98.18538,19.070563],[-98.182219,19.073249],[-98.183888,19.074337],[-98.18281,19.074881]]]}},{"type":"Feature","properties":{"name":""},"geometry":{"type":"Polygon","coordinates":[[[-98.196583,18.978732],[-98.200255,18.965093],[-98.191655,18.966027],[-98.186779,18.957797],[-98.185191,18.96778],[-98.188535,18.968042],[-98.188422,18.969677],[-98.190927,18.96967],[-98.19179,18.971642],[-98.193424,18.969722],[-98.1953,18.970424],[-98.196332,18.971826],[-98.194003,18.975951],[-98.192908,18.975636],[-98.196583,18.978732]]]}},{"type":"Feature","properties":{"name":""},"geometry":{"type":"Polygon","coordinates":[[[-98.190412,19.07508],[-98.197654,19.078849],[-98.196706,19.073525],[-98.192459,19.071374],[-98.190412,19.07508]]]}},{"type":"Feature","properties":{"name":""},"geometry":{"type":"Polygon","coordinates":[[[-98.193978,19.058782],[-98.198298,19.061659],[-98.202169,19.055163],[-98.19753,19.052844],[-98.193978,19.058782]]]}},{"type":"Feature","properties":{"name":""},"geometry":{"type":"Polygon","coordinates":[[[-98.113616,19.061456],[-98.117252,19.063947],[-98.119806,19.062085],[-98.115914,19.059496],[-98.113616,19.061456]]]}},{"type":"Feature","properties":{"name":""},"geometry":{"type":"Polygon","coordinates":[[[-98.233215,19.047761],[-98.239936,19.051108],[-98.240653,19.049767],[-98.237652,19.042056],[-98.233215,19.047761]]]}},{"type":"Feature","properties":{"name":""},"geometry":{"type":"Polygon","coordinates":[[[-98.240456,18.989544],[-98.244269,18.987991],[-98.243034,18.985305],[-98.240456,18.989544]]]}},{"type":"Feature","properties":{"name":""},"geometry":{"type":"Polygon","coordinates":[[[-98.184539,19.019531],[-98.191797,19.023121],[-98.193008,19.013528],[-98.189391,19.011592],[-98.189489,19.016921],[-98.187115,19.01654],[-98.18773,19.018648],[-98.185297,19.01742],[-98.184539,19.019531]]]}},{"type":"Feature","properties":{"name":""},"geometry":{"type":"Polygon","coordinates":[[[-98.258314,18.988683],[-98.256129,18.990706],[-98.256992,18.991859],[-98.259208,18.99095],[-98.258314,18.988683]]]}},{"type":"Feature","properties":{"name":""},"geometry":{"type":"Polygon","coordinates":[[[-98.139358,19.033916],[-98.145272,19.035138],[-98.141202,19.026589],[-98.132363,19.027932],[-98.133442,19.029483],[-98.136548,19.028982],[-98.135935,19.031243],[-98.139358,19.033916]]]}},{"type":"Feature","properties":{"name":""},"geometry":{"type":"Polygon","coordinates":[[[-98.139131,19.02043],[-98.1366,19.021505],[-98.137051,19.023975],[-98.132117,19.026319],[-98.132363,19.027932],[-98.141202,19.026589],[-98.139131,19.02043]]]}},{"type":"Feature","properties":{"name":""},"geometry":{"type":"Polygon","coordinates":[[[-98.128691,19.091123],[-98.130133,19.091679],[-98.137609,19.078247],[-98.141715,19.074308],[-98.136694,19.076433],[-98.134313,19.082286],[-98.130479,19.085661],[-98.128691,19.091123]]]}},{"type":"Feature","properties":{"name":""},"geometry":{"type":"Polygon","coordinates":[[[-98.113366,19.074927],[-98.119776,19.07887],[-98.121557,19.075378],[-98.128623,19.069748],[-98.127349,19.069311],[-98.123973,19.073079],[-98.115634,19.071275],[-98.113366,19.074927]]]}},{"type":"Feature","properties":{"name":""},"geometry":{"type":"Polygon","coordinates":[[[-98.1392,19.019766],[-98.136632,19.015343],[-98.130338,19.026064],[-98.132284,19.028361],[-98.130672,19.030048],[-98.133103,19.029811],[-98.132117,19.026319],[-98.137051,19.023975],[-98.1366,19.021505],[-98.1392,19.019766]]]}},{"type":"Feature","properties":{"name":""},"geometry":{"type":"Polygon","coordinates":[[[-98.219873,19.124731],[-98.222424,19.136389],[-98.225965,19.13123],[-98.22759,19.117664],[-98.219873,19.124731]]]}},{"type":"Feature","properties":{"name":""},"geometry":{"type":"Polygon","coordinates":[[[-98.208915,19.115943],[-98.213847,19.122854],[-98.215693,19.123756],[-98.215416,19.122467],[-98.218621,19.121299],[-98.212672,19.116438],[-98.208271,19.106206],[-98.208915,19.115943]]]}},{"type":"Feature","properties":{"name":""},"geometry":{"type":"Polygon","coordinates":[[[-98.206686,19.092944],[-98.21282,19.093993],[-98.216117,19.087734],[-98.210757,19.086217],[-98.210336,19.087571],[-98.213109,19.088395],[-98.2067,19.088073],[-98.206686,19.092944]]]}},{"type":"Feature","properties":{"name":""},"geometry":{"type":"Polygon","coordinates":[[[-98.153184,19.035191],[-98.157174,19.040488],[-98.158083,19.036152],[-98.151758,19.031623],[-98.153184,19.035191]]]}},{"type":"Feature","properties":{"name":""},"geometry":{"type":"Polygon","coordinates":[[[-98.171699,19.081365],[-98.164315,19.08605],[-98.162773,19.089421],[-98.173793,19.082013],[-98.171699,19.081365]]]}},{"type":"Feature","properties":{"name":""},"geometry":{"type":"Polygon","coordinates":[[[-98.140931,19.075063],[-98.146204,19.078815],[-98.148454,19.072515],[-98.146008,19.070312],[-98.140931,19.075063]]]}},{"type":"Feature","properties":{"name":""},"geometry":{"type":"Polygon","coordinates":[[[-98.24734,19.077189],[-98.248628,19.076328],[-98.246946,19.075673],[-98.244877,19.070811],[-98.241191,19.069361],[-98.239355,19.074344],[-98.242669,19.074235],[-98.242561,19.075387],[-98.24734,19.077189]]]}},{"type":"Feature","properties":{"name":""},"geometry":{"type":"Polygon","coordinates":[[[-98.115634,19.071275],[-98.120675,19.072776],[-98.124516,19.068563],[-98.118718,19.067454],[-98.115634,19.071275]]]}},{"type":"Feature","properties":{"name":""},"geometry":{"type":"Polygon","coordinates":[[[-98.242735,19.079242],[-98.245266,19.080919],[-98.24734,19.077189],[-98.242561,19.075387],[-98.242669,19.074235],[-98.239355,19.074344],[-98.241007,19.07899],[-98.242735,19.079242]]]}},{"type":"Feature","properties":{"name":""},"geometry":{"type":"Polygon","coordinates":[[[-98.130133,19.091679],[-98.134629,19.097184],[-98.137514,19.096235],[-98.139182,19.093158],[-98.134528,19.088428],[-98.130988,19.089751],[-98.130133,19.091679]]]}},{"type":"Feature","properties":{"name":""},"geometry":{"type":"Polygon","coordinates":[[[-98.217317,19.097722],[-98.222467,19.098792],[-98.221416,19.100999],[-98.223895,19.102317],[-98.222905,19.103511],[-98.226499,19.102701],[-98.223883,19.100505],[-98.226635,19.095258],[-98.221722,19.091717],[-98.217317,19.097722]]]}},{"type":"Feature","properties":{"name":""},"geometry":{"type":"Polygon","coordinates":[[[-98.137295,19.042423],[-98.137832,19.0444],[-98.142003,19.046184],[-98.142114,19.041764],[-98.137295,19.042423]]]}},{"type":"Feature","properties":{"name":""},"geometry":{"type":"Polygon","coordinates":[[[-98.219473,18.993189],[-98.220375,18.995795],[-98.226844,18.989569],[-98.224915,18.988191],[-98.219473,18.993189]]]}},{"type":"Feature","properties":{"name":""},"geometry":{"type":"Polygon","coordinates":[[[-98.170224,18.969166],[-98.168499,18.970473],[-98.172759,18.967531],[-98.173865,18.963056],[-98.169351,18.9667],[-98.170224,18.969166]]]}},{"type":"Feature","properties":{"name":""},"geometry":{"type":"Polygon","coordinates":[[[-98.187893,18.959113],[-98.188768,18.957398],[-98.190185,18.959693],[-98.192458,18.955545],[-98.188291,18.954614],[-98.186681,18.957478],[-98.187893,18.959113]]]}},{"type":"Feature","properties":{"name":""},"geometry":{"type":"Polygon","coordinates":[[[-98.230714,18.976019],[-98.227763,18.973294],[-98.226859,18.974594],[-98.228934,18.979253],[-98.232378,18.977946],[-98.230714,18.976019]]]}},{"type":"Feature","properties":{"name":""},"geometry":{"type":"Polygon","coordinates":[[[-98.120244,19.085293],[-98.129095,19.08828],[-98.120786,19.084293],[-98.120244,19.085293]]]}},{"type":"Feature","properties":{"name":""},"geometry":{"type":"Polygon","coordinates":[[[-98.245414,18.953971],[-98.247338,18.953605],[-98.247755,18.957985],[-98.250455,18.954346],[-98.249339,18.952217],[-98.250877,18.950331],[-98.247772,18.948086],[-98.244867,18.948237],[-98.245414,18.953971]]]}},{"type":"Feature","properties":{"name":""},"geometry":{"type":"Polygon","coordinates":[[[-98.22792,18.959904],[-98.228254,18.957631],[-98.225213,18.956801],[-98.226574,18.955033],[-98.224885,18.953996],[-98.222106,18.955419],[-98.22792,18.959904]]]}},{"type":"Feature","properties":{"name":""},"geometry":{"type":"Polygon","coordinates":[[[-98.237467,18.973684],[-98.240027,18.974959],[-98.241229,18.969081],[-98.238659,18.967676],[-98.237467,18.973684]]]}},{"type":"Feature","properties":{"name":""},"geometry":{"type":"Polygon","coordinates":[[[-98.187773,19.094338],[-98.194023,19.09027],[-98.188517,19.088411],[-98.189287,19.084211],[-98.18464,19.08349],[-98.185866,19.08735],[-98.184566,19.090256],[-98.187773,19.094338]]]}},{"type":"Feature","properties":{"name":""},"geometry":{"type":"Polygon","coordinates":[[[-98.244757,18.96072],[-98.244201,18.961944],[-98.246753,18.962131],[-98.248794,18.957033],[-98.244757,18.96072]]]}},{"type":"Feature","properties":{"name":""},"geometry":{"type":"Polygon","coordinates":[[[-98.107787,19.066934],[-98.11543,19.071597],[-98.118718,19.067454],[-98.109128,19.065541],[-98.107787,19.066934]]]}},{"type":"Feature","properties":{"name":""},"geometry":{"type":"Polygon","coordinates":[[[-98.242712,18.955645],[-98.243978,18.960796],[-98.247755,18.957985],[-98.247338,18.953605],[-98.242712,18.955645]]]}},{"type":"Feature","properties":{"name":""},"geometry":{"type":"Polygon","coordinates":[[[-98.227953,18.952661],[-98.230158,18.955454],[-98.232421,18.955689],[-98.233285,18.952454],[-98.230438,18.951195],[-98.227953,18.952661]]]}},{"type":"Feature","properties":{"name":""},"geometry":{"type":"Polygon","coordinates":[[[-98.18204,19.091843],[-98.184048,19.092211],[-98.185866,19.08735],[-98.181053,19.089298],[-98.18204,19.091843]]]}},{"type":"Feature","properties":{"name":""},"geometry":{"type":"Polygon","coordinates":[[[-98.275206,18.978873],[-98.278331,18.980922],[-98.279325,18.979356],[-98.275206,18.978873]]]}},{"type":"Feature","properties":{"name":""},"geometry":{"type":"Polygon","coordinates":[[[-98.224259,18.959889],[-98.224584,18.960065],[-98.224946,18.959305],[-98.224259,18.959889]]]}},{"type":"Feature","properties":{"name":""},"geometry":{"type":"Polygon","coordinates":[[[-98.261369,18.980554],[-98.265836,18.984682],[-98.270037,18.980264],[-98.27356,18.981435],[-98.26574,18.977118],[-98.261369,18.980554]]]}},{"type":"Feature","properties":{"name":""},"geometry":{"type":"Polygon","coordinates":[[[-98.217336,19.00855],[-98.221928,19.01373],[-98.227508,19.016256],[-98.229396,19.011946],[-98.217336,19.00855]]]}},{"type":"Feature","properties":{"name":""},"geometry":{"type":"Polygon","coordinates":[[[-98.200421,19.095529],[-98.20158,19.096679],[-98.199164,19.104782],[-98.202072,19.104655],[-98.203332,19.101494],[-98.20797,19.103455],[-98.206952,19.094896],[-98.203465,19.094141],[-98.200421,19.095529]]]}},{"type":"Feature","properties":{"name":""},"geometry":{"type":"Polygon","coordinates":[[[-98.127985,19.087724],[-98.128783,19.08833],[-98.129183,19.088146],[-98.127985,19.087724]]]}},{"type":"Feature","properties":{"name":""},"geometry":{"type":"Polygon","coordinates":[[[-98.216021,19.004269],[-98.214553,19.007227],[-98.217336,19.00855],[-98.221934,19.002332],[-98.217327,19.000175],[-98.216021,19.004269]]]}},{"type":"Feature","properties":{"name":""},"geometry":{"type":"Polygon","coordinates":[[[-98.199893,18.964625],[-98.200255,18.965093],[-98.200703,18.964626],[-98.199893,18.964625]]]}},{"type":"Feature","properties":{"name":""},"geometry":{"type":"Polygon","coordinates":[[[-98.250473,18.94951],[-98.250192,18.950398],[-98.25095,18.950296],[-98.250473,18.94951]]]}},{"type":"Feature","properties":{"name":""},"geometry":{"type":"Polygon","coordinates":[[[-98.237765,18.95192],[-98.238075,18.953264],[-98.244786,18.951903],[-98.244491,18.95054],[-98.237765,18.95192]]]}},{"type":"Feature","properties":{"name":""},"geometry":{"type":"Polygon","coordinates":[[[-98.120607,19.084544],[-98.124295,19.085875],[-98.126899,19.083626],[-98.120518,19.079456],[-98.119359,19.083114],[-98.120607,19.084544]]]}},{"type":"Feature","properties":{"name":""},"geometry":{"type":"Polygon","coordinates":[[[-98.121553,19.033302],[-98.117805,19.03723],[-98.122808,19.03923],[-98.124782,19.03641],[-98.121553,19.033302]]]}},{"type":"Feature","properties":{"name":""},"geometry":{"type":"Polygon","coordinates":[[[-98.220778,19.111714],[-98.224551,19.115348],[-98.227617,19.11541],[-98.230904,19.106079],[-98.230154,19.103375],[-98.226499,19.102701],[-98.220778,19.111714]]]}},{"type":"Feature","properties":{"name":""},"geometry":{"type":"Polygon","coordinates":[[[-98.188574,19.11536],[-98.196912,19.116502],[-98.195906,19.114446],[-98.200744,19.110519],[-98.199996,19.107492],[-98.192364,19.10705],[-98.186183,19.110464],[-98.188878,19.110852],[-98.186748,19.114277],[-98.188574,19.11536]]]}},{"type":"Feature","properties":{"name":""},"geometry":{"type":"Polygon","coordinates":[[[-98.1772,19.111521],[-98.187986,19.115911],[-98.186748,19.114277],[-98.188878,19.110852],[-98.186183,19.110464],[-98.192205,19.107197],[-98.18892,19.105383],[-98.188708,19.101822],[-98.183085,19.099823],[-98.1772,19.111521]]]}},{"type":"Feature","properties":{"name":""},"geometry":{"type":"Polygon","coordinates":[[[-98.246753,18.962131],[-98.254423,18.960691],[-98.255927,18.958288],[-98.254173,18.957397],[-98.252708,18.959773],[-98.250693,18.958648],[-98.254128,18.950278],[-98.251808,18.950308],[-98.251647,18.947653],[-98.248481,18.948564],[-98.248474,18.949749],[-98.251125,18.949421],[-98.249339,18.952217],[-98.25069,18.953262],[-98.246753,18.962131]]]}},{"type":"Feature","properties":{"name":""},"geometry":{"type":"Polygon","coordinates":[[[-98.206961,19.095177],[-98.21348,19.095347],[-98.210169,19.100593],[-98.214444,19.104102],[-98.213661,19.102283],[-98.217467,19.097605],[-98.216232,19.095268],[-98.206686,19.092944],[-98.206961,19.095177]]]}},{"type":"Feature","properties":{"name":""},"geometry":{"type":"Polygon","coordinates":[[[-98.145476,19.080238],[-98.149264,19.082736],[-98.152485,19.07763],[-98.16349,19.079567],[-98.161624,19.077175],[-98.159831,19.06207],[-98.155494,19.061459],[-98.155992,19.060057],[-98.154497,19.05986],[-98.153674,19.062679],[-98.146008,19.070312],[-98.148454,19.072515],[-98.145476,19.080238]]]}},{"type":"Feature","properties":{"name":""},"geometry":{"type":"Polygon","coordinates":[[[-98.139701,19.067381],[-98.14203,19.06691],[-98.146173,19.070168],[-98.1494,19.067074],[-98.145891,19.063473],[-98.143043,19.065732],[-98.144912,19.063095],[-98.143693,19.062421],[-98.139701,19.067381]]]}},{"type":"Feature","properties":{"name":""},"geometry":{"type":"Polygon","coordinates":[[[-98.144581,19.082629],[-98.158497,19.092531],[-98.160936,19.092852],[-98.162773,19.089421],[-98.157615,19.085468],[-98.153752,19.087696],[-98.151459,19.084092],[-98.145476,19.080238],[-98.144581,19.082629]]]}},{"type":"Feature","properties":{"name":""},"geometry":{"type":"Polygon","coordinates":[[[-98.253763,18.951796],[-98.250693,18.958648],[-98.252708,18.959773],[-98.254788,18.9564],[-98.253379,18.954826],[-98.253763,18.951796]]]}},{"type":"Feature","properties":{"name":""},"geometry":{"type":"Polygon","coordinates":[[[-98.228571,18.952527],[-98.230438,18.951195],[-98.233285,18.952454],[-98.232841,18.953856],[-98.23508,18.95347],[-98.23309,18.948208],[-98.236977,18.948803],[-98.236251,18.945566],[-98.233872,18.944087],[-98.230187,18.947268],[-98.228571,18.952527]]]}},{"type":"Feature","properties":{"name":""},"geometry":{"type":"Polygon","coordinates":[[[-98.224464,18.960543],[-98.222675,18.960312],[-98.220363,18.956235],[-98.218045,18.957174],[-98.218246,18.963487],[-98.221185,18.9633],[-98.222396,18.968039],[-98.218475,18.969869],[-98.218817,18.97466],[-98.225394,18.971414],[-98.224588,18.966819],[-98.226254,18.961391],[-98.224464,18.960543]]]}},{"type":"Feature","properties":{"name":""},"geometry":{"type":"Polygon","coordinates":[[[-98.17386,19.08171],[-98.180381,19.082805],[-98.181748,19.07582],[-98.175751,19.080713],[-98.171604,19.081119],[-98.17386,19.08171]]]}},{"type":"Feature","properties":{"name":""},"geometry":{"type":"Polygon","coordinates":[[[-98.172921,19.080216],[-98.175751,19.080713],[-98.183888,19.074337],[-98.181362,19.073265],[-98.172921,19.080216]]]}},{"type":"Feature","properties":{"name":""},"geometry":{"type":"Polygon","coordinates":[[[-98.253601,18.965645],[-98.255772,18.966352],[-98.257867,18.962846],[-98.259683,18.963826],[-98.260588,18.962302],[-98.2633,18.963826],[-98.266559,18.962411],[-98.270398,18.95496],[-98.270098,18.951395],[-98.264701,18.958534],[-98.261017,18.959037],[-98.256865,18.956742],[-98.252074,18.964527],[-98.253601,18.965645]]]}},{"type":"Feature","properties":{"name":""},"geometry":{"type":"Polygon","coordinates":[[[-98.245705,18.97155],[-98.24968,18.972084],[-98.253204,18.96514],[-98.250523,18.963637],[-98.245705,18.97155]]]}},{"type":"Feature","properties":{"name":""},"geometry":{"type":"Polygon","coordinates":[[[-98.214647,19.11223],[-98.219309,19.111678],[-98.22015,19.114366],[-98.225726,19.116192],[-98.224705,19.117497],[-98.22656,19.118475],[-98.22738,19.11773],[-98.227617,19.11541],[-98.223882,19.114942],[-98.214045,19.106128],[-98.214647,19.11223]]]}},{"type":"Feature","properties":{"name":""},"geometry":{"type":"Polygon","coordinates":[[[-98.214045,19.106128],[-98.220778,19.111714],[-98.222227,19.108345],[-98.218823,19.107279],[-98.221682,19.104933],[-98.219598,19.100886],[-98.216711,19.101526],[-98.214045,19.106128]]]}},{"type":"Feature","properties":{"name":""},"geometry":{"type":"Polygon","coordinates":[[[-98.172968,18.994209],[-98.169012,18.996231],[-98.170143,18.997989],[-98.180822,18.997668],[-98.176666,18.992133],[-98.172968,18.994209]]]}},{"type":"Feature","properties":{"name":""},"geometry":{"type":"Polygon","coordinates":[[[-98.177889,18.964786],[-98.180331,18.96705],[-98.185189,18.967709],[-98.186971,18.956931],[-98.179907,18.955033],[-98.177697,18.961613],[-98.175082,18.96065],[-98.178274,18.962976],[-98.177889,18.964786]]]}},{"type":"Feature","properties":{"name":""},"geometry":{"type":"Polygon","coordinates":[[[-98.21109,18.965908],[-98.212134,18.966483],[-98.214094,18.961952],[-98.212319,18.961202],[-98.213446,18.95888],[-98.209668,18.959686],[-98.21109,18.965908]]]}},{"type":"Feature","properties":{"name":""},"geometry":{"type":"Polygon","coordinates":[[[-98.185,18.995245],[-98.193096,18.988147],[-98.19326,18.985573],[-98.19012,18.987903],[-98.188636,18.98517],[-98.188746,18.986898],[-98.185519,18.986898],[-98.185,18.995245]]]}},{"type":"Feature","properties":{"name":""},"geometry":{"type":"Polygon","coordinates":[[[-98.185697,18.995074],[-98.18864,18.997683],[-98.193678,18.996884],[-98.192227,18.994563],[-98.193366,18.991225],[-98.191678,18.992031],[-98.192394,18.99025],[-98.190391,18.990509],[-98.185697,18.995074]]]}},{"type":"Feature","properties":{"name":""},"geometry":{"type":"Polygon","coordinates":[[[-98.172968,18.994209],[-98.176167,18.992],[-98.180822,18.997668],[-98.186108,18.995854],[-98.184591,18.993123],[-98.182582,18.99513],[-98.180132,18.993823],[-98.1799,18.991222],[-98.184595,18.989897],[-98.185608,18.986518],[-98.1838,18.985374],[-98.183124,18.987241],[-98.180997,18.985425],[-98.179284,18.98763],[-98.177876,18.986414],[-98.176362,18.988707],[-98.170527,18.989426],[-98.170389,18.991472],[-98.172968,18.994209]]]}},{"type":"Feature","properties":{"name":""},"geometry":{"type":"Polygon","coordinates":[[[-98.21109,18.965908],[-98.208852,18.967308],[-98.211307,18.968399],[-98.21109,18.965908]]]}},{"type":"Feature","properties":{"name":""},"geometry":{"type":"Polygon","coordinates":[[[-98.159427,18.955693],[-98.161885,18.955648],[-98.162997,18.95302],[-98.161026,18.948193],[-98.159427,18.955693]]]}}]}